,accuracy,country,formatted_address,google_place_id,input_string,latitude,longitude,number_of_results,postcode,status,type
0,APPROXIMATE,United States,"San Francisco, CA, USA",,"San Francisco, CA, United States",37.7749295,-122.4194155,1,,OK,
1,APPROXIMATE,Slovenia,"8270 Krško, Slovenia",,"Krsko, Slovenia",45.95899780000001,15.4921312,1,8270,OK,
2,APPROXIMATE,United Kingdom,"London, UK",,"London, United Kingdom",51.5073509,-0.1277583,1,,OK,
3,APPROXIMATE,Colombia,Colombia,,Colombia,4.570868,-74.297333,1,,OK,
4,APPROXIMATE,Mexico,"Mexico City, CDMX, Mexico",,"Ciudad de México, México",19.4326077,-99.133208,1,,OK,
5,APPROXIMATE,United Kingdom,"London, UK",,"London, United Kingdom",51.5073509,-0.1277583,1,,OK,
6,APPROXIMATE,Australia,Australia,,Australia,-25.274398,133.775136,1,,OK,
7,APPROXIMATE,United States,"Winlock, WA 98596, USA",,"Winlock, WA, United States",46.4912176,-122.9378983,1,98596,OK,
8,APPROXIMATE,Russia,"St Petersburg, Russia",,"Saint Petersburg, Russia",59.9342802,30.3350986,1,,OK,
9,APPROXIMATE,United States,"Westford, MA 01886, USA",,"Westford, MA, United States",42.5792583,-71.4378411,1,01886,OK,
10,APPROXIMATE,United States,"Honolulu, HI, USA",,"Honolulu, HI",21.3069444,-157.8583333,1,,OK,
11,APPROXIMATE,United States,"Milwaukee, WI, USA",,"Milwaukee, WI",43.0389025,-87.9064736,1,,OK,
12,APPROXIMATE,India,"Bengaluru, Karnataka, India",,"Bangalore, India",12.9715987,77.5945627,1,,OK,
13,APPROXIMATE,Iran,"Tehran, Tehran Province, Iran",,"Tehran, Iran",35.6891975,51.3889736,1,,OK,
14,APPROXIMATE,Australia,"Melbourne VIC, Australia",,"Melbourne VIC, Australia",-37.8136276,144.9630576,1,,OK,
15,APPROXIMATE,New Zealand,New Zealand,,New Zealand,-40.900557,174.885971,1,,OK,
16,APPROXIMATE,United States,"Sunnyvale, CA, USA",,"Sunnyvale, CA, USA",37.36883,-122.0363496,1,,OK,
17,APPROXIMATE,United States,"Mountain View, CA, USA",,"Mountain View, CA",37.3860517,-122.0838511,1,,OK,
18,APPROXIMATE,Algeria,Algeria,,Algeria,28.033886,1.659626,1,,OK,
19,APPROXIMATE,United States,"Helena, MT, USA",,"Helena, MT",46.5891452,-112.0391057,1,,OK,
20,APPROXIMATE,United States,"San Antonio, TX, USA",,"San Antonio, TX, USA",29.4241219,-98.49362819999999,1,,OK,
21,APPROXIMATE,Italy,"Palermo, Province of Palermo, Italy",,"Palermo, PA, Italia",38.1156879,13.3612671,1,,OK,
22,APPROXIMATE,United States,United States,,United States,37.09024,-95.712891,1,,OK,
23,,,,,blankville,,,0,,ZERO_RESULTS,
24,APPROXIMATE,New Zealand,"Auckland, New Zealand",,"Auckland, New Zealand",-36.8484597,174.7633315,1,,OK,
25,APPROXIMATE,United States,"Washington, DC, USA",,"Washington D.C., DC, United States",38.9071923,-77.0368707,1,,OK,
26,APPROXIMATE,United States,"Long Beach, CA, USA",,"Long Beach, CA, United States",33.7700504,-118.1937395,1,,OK,
27,APPROXIMATE,Germany,"Gelsenkirchen, Germany",,"Gelsenkirchen, Deutschland",51.517744,7.085717199999999,1,,OK,
28,APPROXIMATE,Nigeria,"Federal Capital Territory, Nigeria",,"Abuja, FCT, Nigeria",8.8556838,7.179025999999999,1,,OK,
29,ROOFTOP,South Africa,"77 Eugenia Rd, Primrose Hill, Germiston, 1416, South Africa",,United Kingdom/South Africa/Australia,-26.19628,28.1385,2,1416,OK,
30,APPROXIMATE,United States,"Greenville, NC, USA",,"Greenville, NC, USA",35.612661,-77.3663538,1,,OK,
31,APPROXIMATE,United States,"Columbia, MO, USA",,"Columbia, MO",38.9517053,-92.3340724,1,,OK,
32,APPROXIMATE,United Kingdom,"London, UK",,"London, United Kingdom",51.5073509,-0.1277583,1,,OK,
33,APPROXIMATE,Australia,"Sydney NSW, Australia",,"Sydney, Australia",-33.8688197,151.2092955,1,,OK,
34,APPROXIMATE,United States,"Joplin, MO, USA",,"Joplin, MO, USA",37.08422710000001,-94.51328099999999,1,,OK,
35,APPROXIMATE,New Zealand,"Dunedin, New Zealand",,"Dunedin, New Zealand",-45.8787605,170.5027976,1,,OK,
36,APPROXIMATE,South Africa,"Pretoria, South Africa",,"Pretoria, South Africa",-25.7478676,28.2292712,1,,OK,
37,APPROXIMATE,United States,"Texas, USA",,Texas,31.9685988,-99.9018131,1,,OK,
38,APPROXIMATE,United States,"Weston, FL, USA",,"Weston, FL",26.1003654,-80.3997748,1,,OK,
39,APPROXIMATE,United Kingdom,"Manchester, UK",,"Manchester, United Kingdom",53.4807593,-2.2426305,1,,OK,
40,APPROXIMATE,Canada,"Edmonton, AB, Canada",,"Edmonton, AB, Canada",53.544389,-113.4909267,1,,OK,
41,APPROXIMATE,United States,"Olathe, KS, USA",,"Olathe, KS",38.8813958,-94.81912849999999,1,,OK,
42,APPROXIMATE,Canada,"Montreal, QC, Canada",,"Montreal, QC, Canada",45.5016889,-73.567256,1,,OK,
43,APPROXIMATE,Australia,"Sydney NSW, Australia",,"Sydney, Australia",-33.8688197,151.2092955,1,,OK,
44,APPROXIMATE,United States,"Solana Beach, CA, USA",,"Solana Beach, CA",32.991155,-117.2711481,1,,OK,
45,APPROXIMATE,Germany,Germany,,Germany,51.165691,10.451526,1,,OK,
46,APPROXIMATE,Mexico,"Guadalajara, Jalisco, Mexico",,"Guadalajara, Mexico",20.6596988,-103.3496092,1,,OK,
47,APPROXIMATE,Russia,"Moscow, Russia",,"Moscow, Russia",55.755826,37.6172999,1,,OK,
48,APPROXIMATE,Brazil,"Belém - State of Pará, Brazil",,"Belem, Brazil",-1.4557794,-48.4901968,1,,OK,
49,APPROXIMATE,United Kingdom,"London, UK",,"London, United Kingdom",51.5073509,-0.1277583,1,,OK,
50,APPROXIMATE,United States,"Columbus, OH, USA",,"Columbus, OH, United States",39.9611755,-82.99879419999999,1,,OK,
51,APPROXIMATE,United States,"Pittsburgh, PA, USA",,"Pittsburgh, PA",40.44062479999999,-79.9958864,1,,OK,
52,APPROXIMATE,Germany,"Berlin, Germany",,"Berlin, Deutschland",52.52000659999999,13.404954,1,,OK,
53,APPROXIMATE,United States,United States,,United States,37.09024,-95.712891,1,,OK,
54,APPROXIMATE,United States,"Salt Lake City, UT, USA",,"Salt Lake City, UT, USA",40.7607793,-111.8910474,1,,OK,
55,APPROXIMATE,Chile,Chile,,Chile,-35.675147,-71.542969,1,,OK,
56,APPROXIMATE,Canada,"Toronto, ON, Canada",,"Toronto, ON, Canada",43.653226,-79.3831843,1,,OK,
57,APPROXIMATE,Germany,"Berlin, Germany",,"Berlin, Deutschland",52.52000659999999,13.404954,1,,OK,
58,APPROXIMATE,Ukraine,Ukraine,,Ukraine,48.379433,31.1655799,1,,OK,
59,APPROXIMATE,United Kingdom,"London, UK",,"London, United Kingdom",51.5073509,-0.1277583,1,,OK,
60,APPROXIMATE,Belgium,"Wommelgem, Belgium",,"Wommelgem, België",51.2021676,4.5219648,1,,OK,
61,APPROXIMATE,United States,"San Francisco, CA, USA",,"San Francisco, CA, United States",37.7749295,-122.4194155,1,,OK,
62,APPROXIMATE,United States,"Rochester, NY, USA",,"Rochester, NY, United States",43.15657789999999,-77.6088465,1,,OK,
63,APPROXIMATE,United States,"Kentucky, USA",,Kentucky,37.8393332,-84.2700179,1,,OK,
64,APPROXIMATE,Iraq,"Sulaymaniyah Governorate, Iraq",,"Kurdistan, Sulaymaniyah Governorate, Iraq",35.5466348,45.3003683,1,,OK,
65,APPROXIMATE,United States,United States,,USA,37.09024,-95.712891,1,,OK,
66,APPROXIMATE,United States,"San Francisco, CA, USA",,"San Francisco, CA",37.7749295,-122.4194155,1,,OK,
67,APPROXIMATE,United Kingdom,"Brighton, UK",,"Brighton, United Kingdom",50.82253000000001,-0.137163,1,,OK,
68,APPROXIMATE,United Kingdom,United Kingdom,,UK,55.378051,-3.435973,1,,OK,
69,APPROXIMATE,United States,"Raleigh, NC, USA",,"Raleigh, NC",35.7795897,-78.6381787,1,,OK,
70,APPROXIMATE,United States,United States,,USA,37.09024,-95.712891,1,,OK,
71,APPROXIMATE,India,India,,India,20.593684,78.96288,1,,OK,
72,APPROXIMATE,Canada,"Montreal, QC, Canada",,"Montreal, Canada",45.5016889,-73.567256,1,,OK,
73,APPROXIMATE,Netherlands,"Amsterdam, Netherlands",,"Amsterdam, Netherlands",52.3702157,4.895167900000001,1,,OK,
74,APPROXIMATE,United States,"Ivyland, PA 18974, USA",,"Ivyland, PA, United States",40.2078863,-75.0726707,1,18974,OK,
75,APPROXIMATE,United States,"Columbus, OH, USA",,"Columbus, OH, United States",39.9611755,-82.99879419999999,1,,OK,
76,APPROXIMATE,Brazil,Brazil,,Brasil,-14.235004,-51.92528,1,,OK,
77,APPROXIMATE,United States,"Atlanta, GA, USA",,"Atlanta, GA",33.7489954,-84.3879824,1,,OK,
78,APPROXIMATE,United States,"Hemet, CA, USA",,"Hemet, CA, USA",33.7475203,-116.9719684,1,,OK,
79,APPROXIMATE,United States,"Fort Worth, TX, USA",,"Fort Worth, TX, United States",32.7554883,-97.3307658,1,,OK,
80,APPROXIMATE,United States,"Virginia, USA",,"Virginia, United States",37.4315734,-78.6568942,1,,OK,
81,APPROXIMATE,United States,"Sunnyvale, CA, USA",,"Sunnyvale, CA, United States",37.36883,-122.0363496,1,,OK,
82,APPROXIMATE,Thailand,"Bangkok, Thailand",,"Bangkok, Thailand",13.7563309,100.5017651,1,,OK,
83,APPROXIMATE,United States,"Chicago, IL, USA",,"Chicago, IL",41.8781136,-87.6297982,1,,OK,
84,APPROXIMATE,Iran,"Tabriz, East Azerbaijan Province, Iran",,"Tabriz, East Azerbaijan Province, Iran",38.096239,46.2738013,1,,OK,
85,APPROXIMATE,Italy,"Trento, Province of Trento, Italy",,"Trento, Italy",46.0747793,11.1217486,1,,OK,
86,APPROXIMATE,United States,"Atlanta, GA, USA",,"Atlanta, GA, United States",33.7489954,-84.3879824,1,,OK,
87,APPROXIMATE,Netherlands,"Amsterdam, Netherlands",,"Amsterdam, Netherlands",52.3702157,4.895167900000001,1,,OK,
88,APPROXIMATE,France,"Paris, France",,"Paris, France",48.856614,2.3522219,1,,OK,
89,APPROXIMATE,United States,"Golden, CO, USA",,"Golden, CO, United States",39.755543,-105.2210997,1,,OK,
90,APPROXIMATE,United Kingdom,United Kingdom,,UK,55.378051,-3.435973,1,,OK,
91,APPROXIMATE,United States,"New Jersey, USA",,New Jersey,40.0583238,-74.4056612,1,,OK,
92,APPROXIMATE,Poland,"Wrocław, Poland",,"Wrocław, Polska",51.1078852,17.0385376,1,51,OK,
93,APPROXIMATE,Spain,"Madrid, Spain",,"Madrid, Spain",40.4167754,-3.7037902,1,,OK,
94,APPROXIMATE,United States,"Rochester, NY, USA",,"Rochester, NY, United States",43.15657789999999,-77.6088465,1,,OK,
95,APPROXIMATE,Mexico,"San Andres Cholula, Puebla, Mexico",,"San Andrés Cholula, México",19.059957,-98.2949146,1,,OK,
96,APPROXIMATE,United States,"Salinas, CA, USA",,"Salinas, CA",36.6777372,-121.6555013,1,,OK,
97,APPROXIMATE,United Kingdom,"Plymouth, UK",,"Plymouth, United Kingdom",50.3754565,-4.1426565,1,,OK,
98,APPROXIMATE,United States,"Gainesville, FL, USA",,"Gainesville, FL",29.6516344,-82.32482619999999,1,,OK,
99,APPROXIMATE,Israel,Israel,,Israel,31.046051,34.851612,1,,OK,
100,APPROXIMATE,Portugal,Portugal,,Portugal,39.39987199999999,-8.224454,1,,OK,
101,APPROXIMATE,Iran,Iran,,Iran,32.427908,53.688046,1,,OK,
102,APPROXIMATE,United States,"Seattle, WA, USA",,"Seattle, WA, United States",47.6062095,-122.3320708,1,,OK,
103,APPROXIMATE,United States,"Fairfax, VA, USA",,"Fairfax, VA, United States",38.84622359999999,-77.30637329999999,1,,OK,
104,APPROXIMATE,United States,"Santa Cruz, CA, USA",,"Santa Cruz, CA",36.9741171,-122.0307963,1,,OK,
105,APPROXIMATE,United States,"Salt Lake City, UT, USA",,"Salt Lake City, UT, United States",40.7607793,-111.8910474,1,,OK,
106,APPROXIMATE,United States,"San Francisco, CA, USA",,"San Francisco, CA, United States",37.7749295,-122.4194155,1,,OK,
107,APPROXIMATE,United States,"North Carolina, USA",,"North Carolina, United States",35.7595731,-79.01929969999999,1,,OK,
108,GEOMETRIC_CENTER,Iran,"Tehran Province, Tehran, Vanak Square, 1517943413, Iran",,"Vanak Square, Tehran, Tehran Province, Iran",35.7574011,51.4094604,1,1517943413,OK,
109,GEOMETRIC_CENTER,United States,"Tulsa, OK 74106, USA",,World,36.2067586,-95.986942,1,74106,OK,
110,APPROXIMATE,United Arab Emirates,Dubai - United Arab Emirates,,Dubai,25.2048493,55.2707828,1,,OK,
111,APPROXIMATE,United States,"Lander, WY 82520, USA",,"Lander, WY, United States",42.833014,-108.7306725,1,82520,OK,
112,APPROXIMATE,United States,"Indiana, USA",,Indiana,40.2671941,-86.1349019,1,,OK,
113,APPROXIMATE,France,"Lyon, France",,"Lyon, France",45.764043,4.835659,1,,OK,
114,APPROXIMATE,India,"Vellore, Tamil Nadu, India",,"Vellore, Tamil Nadu, India",12.9165167,79.13249859999999,1,,OK,
115,APPROXIMATE,United States,"Richmond, VA, USA",,"Richmond, VA, USA",37.5407246,-77.4360481,1,,OK,
116,APPROXIMATE,United States,"Atlanta, GA, USA",,"Atlanta, GA",33.7489954,-84.3879824,1,,OK,
117,APPROXIMATE,United States,"San Diego, CA, USA",,"San Diego, CA, United States",32.715738,-117.1610838,1,,OK,
118,APPROXIMATE,United States,"Philadelphia, PA, USA",,"Philadelphia, PA, USA",39.9525839,-75.1652215,1,,OK,
119,APPROXIMATE,Saudi Arabia,Saudi Arabia,,Saudi Arabia,23.885942,45.079162,1,,OK,
120,APPROXIMATE,Poland,"Kraków, Poland",,"Kraków, Polska",50.06465009999999,19.9449799,1,30,OK,
121,APPROXIMATE,India,"Bengaluru, Karnataka, India",,"Bengaluru, Karnataka, India",12.9715987,77.5945627,1,,OK,
122,APPROXIMATE,United States,"Portland, OR, USA",,Portland,45.5230622,-122.6764815,1,,OK,
123,APPROXIMATE,United States,"San Mateo, CA, USA",,"San Mateo, CA, United States",37.5629917,-122.3255254,1,,OK,
124,APPROXIMATE,Romania,Romania,,Romania,45.943161,24.96676,1,,OK,
125,APPROXIMATE,Poland,"Kraków, Poland",,"Krakow, Poland",50.06465009999999,19.9449799,1,30,OK,
126,APPROXIMATE,United States,"New York, NY, USA",,"New York, NY, United States",40.7127753,-74.0059728,1,,OK,
127,APPROXIMATE,United States,"St. Louis, MO, USA",,"St. Louis, MO, United States",38.6270025,-90.19940419999999,1,,OK,
128,APPROXIMATE,United States,"Phoenix, AZ, USA",,"Phoenix, AZ",33.4483771,-112.0740373,1,,OK,
129,APPROXIMATE,United States,"Plano, TX, USA",,"Plano, TX, USA",33.0198431,-96.6988856,1,,OK,
130,APPROXIMATE,Canada,"Vaudreuil-Dorion, QC, Canada",,"Vaudreuil-Dorion, Québec",45.404236,-74.03795989999999,1,,OK,
131,APPROXIMATE,United States,"Washington, DC, USA",,"Washington, DC",38.9071923,-77.0368707,1,,OK,
132,APPROXIMATE,Finland,"Helsinki, Finland",,"Helsinki, Suomi",60.16985569999999,24.9383791,1,,OK,
133,APPROXIMATE,United Kingdom,"London, UK",,"London, United Kingdom",51.5073509,-0.1277583,1,,OK,
134,APPROXIMATE,Turkey,"Istanbul, Turkey",,"Istanbul, Turkey",41.0082376,28.9783589,1,,OK,
135,APPROXIMATE,Colombia,"Bogotá, Bogota, Colombia",,"Bogota, Colombia",4.710988599999999,-74.072092,1,,OK,
136,APPROXIMATE,United States,"Oklahoma City, OK, USA",,"Oklahoma City, OK, United States",35.4675602,-97.5164276,1,,OK,
137,APPROXIMATE,United States,"Colorado, USA",,"Colorado, United States",39.5500507,-105.7820674,1,,OK,
138,APPROXIMATE,United States,United States,,United States,37.09024,-95.712891,1,,OK,
139,APPROXIMATE,Greece,"Thessaloniki, Greece",,"Thessaloniki, Greece",40.6400629,22.9444191,1,,OK,
140,APPROXIMATE,Russia,"St Petersburg, Russia",,"St. Petersburg, Russia",59.9342802,30.3350986,1,,OK,
141,APPROXIMATE,Germany,"Munich, Germany",,"München, Deutschland",48.1351253,11.5819805,1,,OK,
142,APPROXIMATE,Chile,Chile,,Chile,-35.675147,-71.542969,1,,OK,
143,APPROXIMATE,Azerbaijan,"Baku, Azerbaijan",,"Baku, Azerbaijan",40.40926169999999,49.8670924,1,,OK,
144,APPROXIMATE,Germany,"Jena, Germany",,"Jena, Germany",50.927054,11.5892372,1,,OK,
145,APPROXIMATE,United States,"Fairfax, VA, USA",,"Fairfax, VA, United States",38.84622359999999,-77.30637329999999,1,,OK,
146,APPROXIMATE,United Kingdom,"Edinburgh, UK",,"Edinburgh, UK",55.953252,-3.188267,1,,OK,
147,APPROXIMATE,Germany,"Rendsburg, Germany",,"Rendsburg, Deutschland",54.3080869,9.6606992,1,,OK,
148,APPROXIMATE,Poland,"Wrocław, Poland",,"Wrocław, Poland",51.1078852,17.0385376,1,51,OK,
149,APPROXIMATE,United States,"Denver, CO, USA",,"Denver, CO, USA",39.7392358,-104.990251,1,,OK,
150,APPROXIMATE,United States,"Tampa, FL, USA",,"Tampa, FL, United States",27.950575,-82.4571776,1,,OK,
151,ROOFTOP,United States,"1618 W Chicago Avenue, Chicago, IL 60622, USA",,Hoosier in Chicago,41.8962148,-87.6680734,1,60622,OK,
152,APPROXIMATE,United Kingdom,"Northampton, UK",,"Northampton, United Kingdom",52.240477,-0.9026560000000001,1,,OK,
153,APPROXIMATE,Canada,"Nova Scotia, Canada",,"Nova Scotia, Canada",44.68198659999999,-63.744311,1,,OK,
154,GEOMETRIC_CENTER,United States,"High Plains, New Braunfels, TX 78130, USA",,Texas High Plains,29.664215,-98.14439890000001,1,78130,OK,
155,APPROXIMATE,Germany,"Passau, Germany",,"Passau, Germany",48.5667364,13.4319466,1,,OK,
156,APPROXIMATE,Czechia,"Prague, Czechia",,"Prague, Czech Republic",50.0755381,14.4378005,1,,OK,
157,APPROXIMATE,Israel,Israel,,Israel,31.046051,34.851612,1,,OK,
158,APPROXIMATE,India,"New Delhi, Delhi, India",,"New Delhi, India",28.6139391,77.2090212,1,,OK,
159,APPROXIMATE,United States,"Alpharetta, GA, USA",,"Alpharetta, GA, United States",34.0753762,-84.2940899,1,,OK,
160,APPROXIMATE,United States,"New York, NY, USA",,"New York, NY",40.7127753,-74.0059728,1,,OK,
161,APPROXIMATE,United States,"Indianapolis, IN, USA",,"Indianapolis, IN",39.768403,-86.158068,1,,OK,
162,APPROXIMATE,India,"Hyderabad, Telangana, India",,"Hyderabad, Telangana, India",17.385044,78.486671,1,,OK,
163,APPROXIMATE,India,"Mumbai, Maharashtra, India",,"Mumbai, Maharashtra, India",19.0759837,72.8776559,1,,OK,
164,APPROXIMATE,Czechia,"Brno, Czechia",,"Brno, Czechia",49.1950602,16.6068371,1,,OK,
165,APPROXIMATE,Netherlands,"Groningen, Netherlands",,"Groningen, Nederland",53.2193835,6.5665017,1,,OK,
166,APPROXIMATE,United States,"San Francisco, CA, USA",,"San Francisco, CA",37.7749295,-122.4194155,1,,OK,
167,APPROXIMATE,Ukraine,"Lviv, Lviv Oblast, Ukraine, 79000",,"L'viv, Ukraine",49.839683,24.029717,1,79000,OK,
168,APPROXIMATE,India,"Gandhinagar, Gujarat, India",,"Gandhinagar, Gujarat, India",23.2156354,72.63694149999999,1,,OK,
169,APPROXIMATE,Canada,"Toronto, ON, Canada",,"Toronto, ON, Canada",43.653226,-79.3831843,1,,OK,
170,APPROXIMATE,United States,"Rochester, NY, USA",,"Rochester, NY, United States",43.15657789999999,-77.6088465,1,,OK,
171,APPROXIMATE,Sweden,"Örebro, Sweden",,"Örebro, Sweden",59.2752626,15.2134105,1,,OK,
172,APPROXIMATE,United States,"New York, NY, USA",,"New York, NY, United States",40.7127753,-74.0059728,1,,OK,
173,APPROXIMATE,Denmark,Denmark,,Denmark,56.26392,9.501785,1,,OK,
174,APPROXIMATE,United States,"Nebraska, USA",,"Nebraska, USA",41.4925374,-99.9018131,1,,OK,
175,APPROXIMATE,United States,"Sacramento, CA, USA",,"Sacramento, CA, United States",38.5815719,-121.4943996,1,,OK,
176,APPROXIMATE,Canada,"Brampton, ON, Canada",,"Brampton, ON, Canada",43.7315479,-79.7624177,1,,OK,
177,APPROXIMATE,Canada,"Vancouver, BC, Canada",,"Vancouver, BC, Canada",49.2827291,-123.1207375,1,,OK,
178,APPROXIMATE,United Kingdom,"London, UK",,"London, United Kingdom",51.5073509,-0.1277583,1,,OK,
179,APPROXIMATE,Germany,"Düsseldorf, Germany",,"Düsseldorf, Deutschland",51.2277411,6.7734556,1,,OK,
180,APPROXIMATE,Russia,Russia,,Russia,61.52401,105.318756,1,,OK,
181,APPROXIMATE,India,"Mumbai, Maharashtra, India",,Mumbai,19.0759837,72.8776559,1,,OK,
182,APPROXIMATE,India,"Chennai, Tamil Nadu, India",,"Chennai, Tamil Nadu, India",13.0826802,80.2707184,1,,OK,
183,APPROXIMATE,Germany,Germany,,Germany,51.165691,10.451526,1,,OK,
184,APPROXIMATE,Russia,Russia,,Russia,61.52401,105.318756,1,,OK,
185,ROOFTOP,United States,"7502 S Winston Pl, Tulsa, OK 74136, USA",,,36.0545737,-95.923037,1,74136,OK,
186,APPROXIMATE,United States,"San Francisco, CA, USA",,"San Francisco, CA",37.7749295,-122.4194155,1,,OK,
187,APPROXIMATE,Germany,Germany,,Germany,51.165691,10.451526,1,,OK,
188,APPROXIMATE,Brazil,"Itaguaí - State of Rio de Janeiro, Brazil",,"Itaguaí - State of Rio de Janeiro, Brazil",-22.8631853,-43.7779187,1,,OK,
189,APPROXIMATE,United Kingdom,"Derby, UK",,"Derby, United Kingdom",52.9225301,-1.4746186,1,,OK,
190,APPROXIMATE,Bangladesh,"Dhaka, Bangladesh",,"Dhaka, Dhaka Division, Bangladesh",23.810332,90.4125181,1,,OK,
191,APPROXIMATE,India,"Mumbai, Maharashtra, India",,Mumbai,19.0759837,72.8776559,1,,OK,
192,APPROXIMATE,United States,"Williamsport, PA, USA",,"Williamsport, PA",41.2411897,-77.00107860000001,1,,OK,
193,APPROXIMATE,Switzerland,Switzerland,,Switzerland,46.818188,8.227511999999999,1,,OK,
194,APPROXIMATE,Netherlands,Netherlands,,Netherlands,52.132633,5.291265999999999,1,,OK,
195,APPROXIMATE,India,"New Delhi, Delhi, India",,"New Delhi, Delhi, India",28.6139391,77.2090212,1,,OK,
196,APPROXIMATE,India,India,,India,20.593684,78.96288,1,,OK,
197,APPROXIMATE,India,"Mumbai, Maharashtra, India",,"Mumbai, Maharashtra, India",19.0759837,72.8776559,1,,OK,
198,APPROXIMATE,United States,"Seattle, WA, USA",,"Seattle, WA, United States",47.6062095,-122.3320708,1,,OK,
199,APPROXIMATE,United Kingdom,United Kingdom,,UK,55.378051,-3.435973,1,,OK,
200,APPROXIMATE,United Kingdom,"Edinburgh, UK",,"Edinburgh, UK",55.953252,-3.188267,1,,OK,
201,APPROXIMATE,Germany,"Regensburg, Germany",,"Regensburg, Deutschland",49.0134297,12.1016236,1,,OK,
202,APPROXIMATE,Brazil,"Belo Horizonte - State of Minas Gerais, Brazil",,"Belo Horizonte, Brazil",-19.9245018,-43.93523760000001,1,,OK,
203,APPROXIMATE,Dominican Republic,"Santiago De Los Caballeros, Dominican Republic",,"Santiago De Los Caballeros, Santiago, República Dominicana",19.4791963,-70.6930568,1,,OK,
204,APPROXIMATE,United States,"Atlanta, GA, USA",,"Atlanta, GA, USA",33.7489954,-84.3879824,1,,OK,
205,APPROXIMATE,Canada,"Toronto, ON, Canada",,"Toronto, ON, Canada",43.653226,-79.3831843,1,,OK,
206,APPROXIMATE,United States,United States,,United States,37.09024,-95.712891,1,,OK,
207,APPROXIMATE,United States,"Billings, MT, USA",,"Billings, MT",45.7832856,-108.5006904,1,,OK,
208,APPROXIMATE,United States,"Philadelphia, PA, USA",,"Philadelphia, PA",39.9525839,-75.1652215,1,,OK,
209,APPROXIMATE,Canada,Canada,,Canada,56.130366,-106.346771,1,,OK,
210,APPROXIMATE,Russia,"Moscow, Russia",,"Moscow, Russia",55.755826,37.6172999,1,,OK,
211,APPROXIMATE,United States,"New Jersey, USA",,"New Jersey, United States",40.0583238,-74.4056612,1,,OK,
212,APPROXIMATE,India,"Bengaluru, Karnataka, India",,"Bangalore, Karnataka, India",12.9715987,77.5945627,1,,OK,
213,APPROXIMATE,United States,"Long Island, New York, USA",,"Long Island, New York, NY, United States",40.789142,-73.13496099999999,1,,OK,
214,ROOFTOP,United States,"5842 W North Ave, Chicago, IL 60639, USA",,Planet Earth,41.909611,-87.771964,1,60639,OK,
215,APPROXIMATE,United Kingdom,United Kingdom,,UK,55.378051,-3.435973,1,,OK,
216,APPROXIMATE,Morocco,"Rabat, Morocco",,"Rabat, Rabat-Salé-Zemmour-Zaër, Maroc",33.9715904,-6.8498129,1,,OK,
217,APPROXIMATE,Brazil,Brazil,,Brazil,-14.235004,-51.92528,1,,OK,
218,APPROXIMATE,India,"Bengaluru, Karnataka, India",,"Bangalore, Karnataka, India",12.9715987,77.5945627,1,,OK,
219,APPROXIMATE,United States,"Seattle, WA, USA",,"Seattle, WA",47.6062095,-122.3320708,1,,OK,
220,APPROXIMATE,United States,"Beaumont, TX, USA",,"Beaumont, TX, United States",30.080174,-94.1265562,1,,OK,
221,APPROXIMATE,Pakistan,Pakistan,,Pakistan,30.375321,69.34511599999999,1,,OK,
222,APPROXIMATE,United States,"San Francisco, CA, USA",,"San Francisco, CA",37.7749295,-122.4194155,1,,OK,
223,APPROXIMATE,Canada,"Winnipeg, MB, Canada",,"Winnipeg, MB",49.895136,-97.13837439999999,1,,OK,
224,APPROXIMATE,Brazil,Brazil,,Brazil,-14.235004,-51.92528,1,,OK,
225,APPROXIMATE,Ukraine,Ukraine,,Ukraine,48.379433,31.1655799,1,,OK,
226,APPROXIMATE,United States,United States,,USA,37.09024,-95.712891,1,,OK,
227,APPROXIMATE,United Kingdom,"Hampshire, UK",,"Hampshire, United Kingdom",51.05769480000001,-1.3080629,1,,OK,
228,APPROXIMATE,Germany,"Berlin, Germany",,Berlin,52.52000659999999,13.404954,1,,OK,
229,ROOFTOP,Ireland,"Neverland, Bracklin Rd, Keelogenasause, Edgeworthstown, Co. Longford, Ireland",,Neverland,53.7053782,-7.6152815,1,,OK,
230,APPROXIMATE,South Africa,"Cape Town, South Africa",,Cape Town,-33.9248685,18.4240553,1,,OK,
231,APPROXIMATE,India,"Mumbai, Maharashtra, India",,"Mumbai, India",19.0759837,72.8776559,1,,OK,
232,RANGE_INTERPOLATED,Bangladesh,"3 Outer Circular Rd, Dhaka, Bangladesh",,"3/3 Outer Circular Road, Dhaka, Bangladesh",23.7427556,90.4162762,1,,OK,
233,APPROXIMATE,Israel,Israel,,Israel,31.046051,34.851612,1,,OK,
234,APPROXIMATE,Spain,"Valencia, Spain",,"Valencia, España",39.4699075,-0.3762881,1,,OK,
235,APPROXIMATE,United States,"Washington, DC, USA",,"Washington, DC",38.9071923,-77.0368707,1,,OK,
236,APPROXIMATE,Belgium,Belgium,,Belgium,50.503887,4.469936,1,,OK,
237,APPROXIMATE,United Kingdom,United Kingdom,,United Kingdom,55.378051,-3.435973,1,,OK,
238,APPROXIMATE,Pakistan,"Rawalpindi, Punjab, Pakistan",,"Rawalpindi, Pakistan",33.5651107,73.0169135,1,,OK,
239,APPROXIMATE,India,"Bengaluru, Karnataka, India",,"Bangalore, India",12.9715987,77.5945627,1,,OK,
240,APPROXIMATE,Poland,"Gdynia, Poland",,"Gdynia, Polska",54.5188898,18.5305409,1,81,OK,
241,APPROXIMATE,Switzerland,Switzerland,,Switzerland,46.818188,8.227511999999999,1,,OK,
242,APPROXIMATE,Belgium,"Ghent, Belgium",,"Gent, België",51.0543422,3.7174243,1,,OK,
243,APPROXIMATE,India,"Ghaziabad, Uttar Pradesh, India",,"Ghaziabad, Uttar Pradesh, India",28.6691565,77.45375779999999,1,,OK,
244,APPROXIMATE,Germany,"Bremen, Germany",,"Bremen, Germany",53.07929619999999,8.8016936,1,,OK,
245,APPROXIMATE,United States,"Salt Lake City, UT, USA",,"Salt Lake City, UT",40.7607793,-111.8910474,1,,OK,
246,APPROXIMATE,Belgium,"Antwerp, Belgium",,"Antwerpen, België",51.2194475,4.4024643,1,,OK,
247,APPROXIMATE,Netherlands,Netherlands,,Netherlands,52.132633,5.291265999999999,1,,OK,
248,,,,,Everywhere all the time,,,0,,ZERO_RESULTS,
249,APPROXIMATE,United States,"Boston, MA, USA",,"Boston, MA, United States",42.3600825,-71.0588801,1,,OK,
250,APPROXIMATE,India,"Chennai, Tamil Nadu, India",,Chennai,13.0826802,80.2707184,1,,OK,
251,APPROXIMATE,Sweden,"Stockholm, Sweden",,"Stockholm, Sweden",59.32932349999999,18.0685808,1,,OK,
252,APPROXIMATE,Germany,"97877 Wertheim am Main, Germany",,"Wertheim am Main, Germany",49.7586035,9.512851099999999,1,97877,OK,
253,APPROXIMATE,Brazil,Brazil,,Brazil,-14.235004,-51.92528,1,,OK,
254,APPROXIMATE,United States,"Alpharetta, GA, USA",,"Alpharetta, GA, United States",34.0753762,-84.2940899,1,,OK,
255,APPROXIMATE,India,"Bengaluru, Karnataka, India",,"Bangalore, Karnataka, India",12.9715987,77.5945627,1,,OK,
256,APPROXIMATE,United States,"San Francisco Bay Area, CA, USA",,San Francisco Bay Area,37.8271784,-122.2913078,1,,OK,
257,APPROXIMATE,United States,United States,,USA,37.09024,-95.712891,1,,OK,
258,APPROXIMATE,India,"Mysuru, Karnataka, India",,"Mysuru, Karnataka, India",12.2958104,76.6393805,1,,OK,
259,APPROXIMATE,Canada,"Toronto, ON, Canada",,"Toronto, Canada",43.653226,-79.3831843,1,,OK,
260,APPROXIMATE,United States,"San Francisco, CA, USA",,"San Francsico, CA",37.7749295,-122.4194155,1,,OK,
261,APPROXIMATE,Russia,"Cheboksary, Chuvashia Republic, Russia",,"Cheboksary, Russia",56.11676629999999,47.262782,1,,OK,
262,APPROXIMATE,Denmark,Denmark,,Denmark,56.26392,9.501785,1,,OK,
263,APPROXIMATE,Dominican Republic,Dominican Republic,,Dominican Republic,18.735693,-70.162651,1,,OK,
264,APPROXIMATE,United Kingdom,United Kingdom,,UK,55.378051,-3.435973,1,,OK,
265,APPROXIMATE,Canada,"Calgary, AB, Canada",,"Calgary, Canada",51.0486151,-114.0708459,1,,OK,
266,APPROXIMATE,Ukraine,"Kyiv, Ukraine, 02000",,"Kiev, Ukraine",50.4501,30.5234,1,02000,OK,
267,APPROXIMATE,India,"Chennai, Tamil Nadu, India",,"Chennai, Tamil Nadu, India",13.0826802,80.2707184,1,,OK,
268,APPROXIMATE,Germany,"Berlin, Germany",,"Berlin, Germany",52.52000659999999,13.404954,1,,OK,
269,APPROXIMATE,Vietnam,"Ho Chi Minh City, Vietnam",,"Cidade de Ho Chi Minh, Ho Chi Minh, Vietname",10.8230989,106.6296638,1,,OK,
270,APPROXIMATE,India,"Surat, Gujarat, India",,"Surat, Gujarat, India",21.1702401,72.83106070000001,1,,OK,
271,APPROXIMATE,United Kingdom,United Kingdom,,United Kingdom,55.378051,-3.435973,1,,OK,
272,APPROXIMATE,United States,"Fort Worth, TX, USA",,"Fort Worth, TX",32.7554883,-97.3307658,1,,OK,
273,APPROXIMATE,United States,"Wisconsin, USA",,Wisconsin,43.7844397,-88.7878678,1,,OK,
274,APPROXIMATE,India,"Bengaluru, Karnataka, India",,"Bangalore, Karnataka, India",12.9715987,77.5945627,1,,OK,
275,APPROXIMATE,United States,"Chicago, IL, USA",,"Chicago, IL",41.8781136,-87.6297982,1,,OK,
276,APPROXIMATE,Netherlands,Netherlands,,Netherlands,52.132633,5.291265999999999,1,,OK,
277,APPROXIMATE,India,"Mumbai, Maharashtra, India",,"Mumbai, Maharashtra, India",19.0759837,72.8776559,1,,OK,
278,APPROXIMATE,Sweden,"Uppsala, Sweden",,"Uppsala, Sweden",59.85856380000001,17.6389267,1,,OK,
279,APPROXIMATE,United Kingdom,"Norfolk, UK",,"Norfolk, United Kingdom",52.6139686,0.8864021,1,,OK,
280,APPROXIMATE,United States,"Raleigh, NC, USA",,"Raleigh, NC, United States",35.7795897,-78.6381787,1,,OK,
281,APPROXIMATE,Turkey,Turkey,,Turkey,38.963745,35.243322,1,,OK,
282,APPROXIMATE,United States,"Fort Worth, TX, USA",,"Fort Worth, TX",32.7554883,-97.3307658,1,,OK,
283,APPROXIMATE,Egypt,Egypt,,Egypt,26.820553,30.802498,1,,OK,
284,APPROXIMATE,Ukraine,"Kyiv, Ukraine, 02000",,"Kiev City, Kyiv city, Ukraine",50.4501,30.5234,1,02000,OK,
285,APPROXIMATE,Chile,"Santiago, Santiago Metropolitan Region, Chile",,"Santiago, Chile",-33.4488897,-70.6692655,1,,OK,
286,APPROXIMATE,United States,"Pittsfield, MA 01201, USA",,"Pittsfield, MA, United States",42.4500845,-73.2453824,1,01201,OK,
287,APPROXIMATE,Canada,"Brampton, ON, Canada",,"Brampton, ON, Canada",43.7315479,-79.7624177,1,,OK,
288,APPROXIMATE,United States,"Colorado, USA",,"Colorado, United States",39.5500507,-105.7820674,1,,OK,
289,APPROXIMATE,United States,United States,,United States,37.09024,-95.712891,1,,OK,
290,APPROXIMATE,United Kingdom,United Kingdom,,United Kingdom,55.378051,-3.435973,1,,OK,
291,APPROXIMATE,United States,"Minnesota, USA",,MN,46.729553,-94.6858998,1,,OK,
292,APPROXIMATE,United States,"Washington, USA",,"WA, USA",47.7510741,-120.7401385,1,,OK,
293,APPROXIMATE,Germany,Germany,,Germany,51.165691,10.451526,1,,OK,
294,APPROXIMATE,United States,"Washington, DC, USA",,"Washington, DC, United States",38.9071923,-77.0368707,1,,OK,
295,APPROXIMATE,United States,"Kansas, USA",,Kansas,39.011902,-98.4842465,1,,OK,
296,APPROXIMATE,Canada,"Calgary, AB, Canada",,"Calgary, AB, Canada",51.0486151,-114.0708459,1,,OK,
297,APPROXIMATE,Romania,"Cluj-Napoca, Romania",,"Cluj-Napoca, Cluj County, Romania",46.7712101,23.6236353,1,,OK,
298,APPROXIMATE,Belgium,Belgium,,Belgium,50.503887,4.469936,1,,OK,
299,APPROXIMATE,Sri Lanka,Sri Lanka,,Sri Lanka,7.873053999999999,80.77179699999999,1,,OK,
300,APPROXIMATE,Spain,"Valencia, Spain",,"Valencia, España",39.4699075,-0.3762881,1,,OK,
301,APPROXIMATE,United States,"San Francisco, CA, USA",,"San Francisco, CA",37.7749295,-122.4194155,1,,OK,
302,APPROXIMATE,Germany,"Mannheim, Germany",,"Mannheim, Germany",49.4874592,8.466039499999999,1,,OK,
303,GEOMETRIC_CENTER,United States,"Hyrule St, Zachary, LA 70791, USA",,Hyrule,30.6991887,-91.1503169,1,70791,OK,
304,APPROXIMATE,United States,"Canton, MI, USA",,"Canton, MI, United States",42.3086444,-83.48211599999999,1,,OK,
305,APPROXIMATE,India,"New Delhi, Delhi, India",,"New Delhi, Delhi, India",28.6139391,77.2090212,1,,OK,
306,APPROXIMATE,United States,"Philadelphia, PA, USA",,"Philadelphia, PA",39.9525839,-75.1652215,1,,OK,
307,APPROXIMATE,Germany,Germany,,Germany,51.165691,10.451526,1,,OK,
308,APPROXIMATE,United States,"Bright, IN, USA",,"Bright, IN",39.2183885,-84.8560633,1,,OK,
309,APPROXIMATE,Romania,"Cluj-Napoca, Romania",,"Cluj-Napoca, Romania",46.7712101,23.6236353,1,,OK,
310,APPROXIMATE,India,"Bengaluru, Karnataka, India",,"Bangalore, Karnataka, India",12.9715987,77.5945627,1,,OK,
311,APPROXIMATE,United States,"Philadelphia, PA, USA",,"Philadelphia, PA, USA",39.9525839,-75.1652215,1,,OK,
312,APPROXIMATE,United Kingdom,United Kingdom,,United Kingdom,55.378051,-3.435973,1,,OK,
313,APPROXIMATE,India,"Kalyani, West Bengal, India",,"Kalyani, West Bengal, India",22.9750855,88.43450779999999,1,,OK,
314,APPROXIMATE,Switzerland,Switzerland,,Switzerland,46.818188,8.227511999999999,1,,OK,
315,APPROXIMATE,Bosnia and Herzegovina,"Sarajevo, Bosnia and Herzegovina",,"Sarajevo, Bosnia and Herzegovina",43.8562586,18.4130763,1,,OK,
316,APPROXIMATE,India,India,,India,20.593684,78.96288,1,,OK,
317,APPROXIMATE,United Kingdom,"Oxford, UK",,"Oxford, United Kingdom",51.7520209,-1.2577263,1,,OK,
318,APPROXIMATE,Spain,Spain,,Spain,40.46366700000001,-3.74922,1,,OK,
319,APPROXIMATE,United Kingdom,"Leeds, UK",,"Leeds, UK",53.8007554,-1.5490774,1,,OK,
320,APPROXIMATE,France,"Lyon, France",,"http://localhost:3000 (Lyon, FR)",45.764043,4.835659,1,,OK,
321,APPROXIMATE,Belgium,"Kapelle-op-den-Bos, Belgium",,"Kapelle-op-den-Bos, België",51.01324,4.35541,1,,OK,
322,APPROXIMATE,Guatemala,Guatemala,,Guatemala,15.783471,-90.23075899999999,1,,OK,
323,APPROXIMATE,Germany,"Berlin, Germany",,"Berlin, Germany",52.52000659999999,13.404954,1,,OK,
324,APPROXIMATE,United States,"Ann Arbor, MI, USA",,"Ann Arbor, MI",42.2808256,-83.7430378,1,,OK,
325,APPROXIMATE,India,"Hyderabad, Telangana, India",,"Hyderabad, Telangana, India",17.385044,78.486671,1,,OK,
326,APPROXIMATE,United Kingdom,United Kingdom,,UK,55.378051,-3.435973,1,,OK,
327,APPROXIMATE,France,"Strasbourg, France",,"Strasbourg, France",48.5734053,7.752111299999999,1,,OK,
328,APPROXIMATE,Poland,"Kraków, Poland",,"Kraków, Polska",50.06465009999999,19.9449799,1,30,OK,
329,APPROXIMATE,Pakistan,"Karachi, Karachi City, Sindh, Pakistan",,"Karachi, Sindh, Pakistan",24.8607343,67.0011364,1,,OK,
330,APPROXIMATE,Dominican Republic,Dominican Republic,,Dominican Republic,18.735693,-70.162651,1,,OK,
331,APPROXIMATE,Spain,Spain,,Spain,40.46366700000001,-3.74922,1,,OK,
332,APPROXIMATE,United States,"Seattle, WA, USA",,"Seattle, WA, United States",47.6062095,-122.3320708,1,,OK,
333,APPROXIMATE,Canada,"Ottawa, ON, Canada",,"Ottawa, ON, Canada",45.4215296,-75.69719309999999,1,,OK,
334,APPROXIMATE,United Kingdom,"London, UK",,"London, United Kingdom",51.5073509,-0.1277583,1,,OK,
335,APPROXIMATE,United States,"Boulder, CO, USA",,"Boulder, CO",40.0149856,-105.2705456,1,,OK,
336,APPROXIMATE,India,"Pune, Maharashtra, India",,Pune,18.5204303,73.8567437,1,,OK,
337,APPROXIMATE,Brazil,"Blumenau, State of Santa Catarina, Brazil",,"Blumenau, Brazil",-26.9165792,-49.0717331,1,,OK,
338,APPROXIMATE,India,"Kolkata, West Bengal, India",,"Kolkata, West Bengal, India",22.572646,88.36389500000001,1,,OK,
339,APPROXIMATE,United States,"Cambridge, MA, USA",,"Cambridge, Massachusetts, USA",42.3736158,-71.10973349999999,1,,OK,
340,APPROXIMATE,United Kingdom,"Manchester, UK",,"Manchester, UK",53.4807593,-2.2426305,1,,OK,
341,APPROXIMATE,United States,"Seattle, WA, USA",,"Seattle, WA",47.6062095,-122.3320708,1,,OK,
342,APPROXIMATE,Netherlands,"Amsterdam, Netherlands",,"Amsterdam, Netherlands",52.3702157,4.895167900000001,1,,OK,
343,APPROXIMATE,United States,"Chicago, IL, USA",,"Chicago, IL",41.8781136,-87.6297982,1,,OK,
344,APPROXIMATE,United States,"New York, NY, USA",,"NY, United States",40.7127753,-74.0059728,1,,OK,
345,APPROXIMATE,Germany,"Bremen, Germany",,"Bremen, Germany",53.07929619999999,8.8016936,1,,OK,
346,APPROXIMATE,Portugal,"Lisbon, Portugal",,"Lisbon, Portugal",38.7222524,-9.1393366,1,,OK,
347,APPROXIMATE,United States,United States,,United States,37.09024,-95.712891,1,,OK,
348,APPROXIMATE,India,"West Bengal, India",,"WB, India",22.9867569,87.8549755,1,,OK,
349,ROOFTOP,Spain,"C/Plaza de Santa Cruz, 8, 47002 Valladolid, Spain",,"GIB, University of Valladolid",41.6569271,-4.7140547,1,47002,OK,
350,APPROXIMATE,United States,"Kent, OH, USA",,"Kent, OH",41.1536674,-81.3578859,1,,OK,
351,APPROXIMATE,Poland,"Gdańsk, Poland",,"Gdańsk, Poland",54.35202520000001,18.6466384,1,80,OK,
352,APPROXIMATE,United Kingdom,"The City of Brighton and Hove, UK",,Brighton and Hove,50.8226288,-0.137047,1,,OK,
353,APPROXIMATE,United States,United States,,United States,37.09024,-95.712891,1,,OK,
354,APPROXIMATE,India,"Ahmedabad, Gujarat, India",,"Ahmedabad, Gujarat, India",23.022505,72.5713621,1,,OK,
355,APPROXIMATE,Netherlands,"Amsterdam, Netherlands",,"Amsterdam, Netherlands",52.3702157,4.895167900000001,1,,OK,
356,APPROXIMATE,Germany,"Ulm, Germany",,"Ulm, Germany",48.4010822,9.987607599999999,1,,OK,
357,APPROXIMATE,Russia,Russia,,Russia,61.52401,105.318756,1,,OK,
358,APPROXIMATE,Ukraine,Ukraine,,Ukraine,48.379433,31.1655799,1,,OK,
359,APPROXIMATE,Romania,Romania,,Romania,45.943161,24.96676,1,,OK,
360,ROOFTOP,United States,"154 Krog St NE #130, Atlanta, GA 30307, USA",,Everywhere,33.7589188,-84.3640829,2,30307,OK,
361,ROOFTOP,United States,"7502 S Winston Pl, Tulsa, OK 74136, USA",,,36.0545737,-95.923037,1,74136,OK,
362,APPROXIMATE,United States,"St. Louis, MO, USA",,"Saint Louis, MO, United States",38.6270025,-90.19940419999999,1,,OK,
363,APPROXIMATE,Russia,Russia,,Russia,61.52401,105.318756,1,,OK,
364,APPROXIMATE,Russia,Russia,,Russia,61.52401,105.318756,1,,OK,
365,APPROXIMATE,United States,"Seattle, WA, USA",,Seattle,47.6062095,-122.3320708,1,,OK,
366,APPROXIMATE,United States,"Washington, DC, USA",,"Washington, DC, United States",38.9071923,-77.0368707,1,,OK,
367,APPROXIMATE,India,"Chennai, Tamil Nadu, India",,"Chennai, Tamil Nadu, India",13.0826802,80.2707184,1,,OK,
368,APPROXIMATE,United States,"Florida, USA",,South FL,27.6648274,-81.5157535,2,,OK,
369,APPROXIMATE,Algeria,"Tizi Ouzou, Algeria",,"Tizi Ouzou, Algeria",36.7118213,4.0517169,1,,OK,
370,APPROXIMATE,United States,"New York, NY, USA",,"New York, NY",40.7127753,-74.0059728,1,,OK,
371,APPROXIMATE,Germany,Germany,,Gemany,51.165691,10.451526,1,,OK,
372,APPROXIMATE,Ukraine,"Lviv, Lviv Oblast, Ukraine, 79000",,"L'viv, Ukraine",49.839683,24.029717,1,79000,OK,
373,APPROXIMATE,United Kingdom,"Surrey, UK",,"Surrey, United Kingdom",51.31475930000001,-0.5599501,1,,OK,
374,APPROXIMATE,,Europe,,Europe,54.5259614,15.2551187,1,,OK,
375,APPROXIMATE,Macau,Macau,,Macau,22.198745,113.543873,1,,OK,
376,APPROXIMATE,Sweden,Sweden,,Sweden,60.12816100000001,18.643501,1,,OK,
377,APPROXIMATE,Italy,Italy,,Italy,41.87194,12.56738,1,,OK,
378,APPROXIMATE,Spain,"Alicante, Spain",,"Alicante, Spain",38.3459963,-0.4906855,1,,OK,
379,APPROXIMATE,Belarus,"Minsk, Belarus",,"Minsk, Belarus",53.90453979999999,27.5615244,1,,OK,
380,APPROXIMATE,Algeria,"Algiers, Sidi M'Hamed, Algeria",,"Algiers, Algeria",36.753768,3.0587561,1,,OK,
381,APPROXIMATE,India,"Pune, Maharashtra, India",,pune,18.5204303,73.8567437,1,,OK,
382,APPROXIMATE,Sri Lanka,Sri Lanka,,srilanka,7.873053999999999,80.77179699999999,1,,OK,
383,APPROXIMATE,United States,"North Carolina, USA",,North Carolina,35.7595731,-79.01929969999999,1,,OK,
384,ROOFTOP,Ireland,"Somewhere, 56 Ardross Ave, Cloghvally Upper, Carrickmacross, Co. Monaghan, A81 KV80, Ireland",,Somewhere in Europe...,53.9807737,-6.714881999999999,2,A81 KV80,OK,
385,APPROXIMATE,India,"Indore, Madhya Pradesh, India",,"Indore, Madhya Pradesh, India",22.7195687,75.8577258,1,,OK,
386,APPROXIMATE,India,"Hyderabad, Telangana, India",,"Hyderabad, Telangana, India",17.385044,78.486671,1,,OK,
387,APPROXIMATE,Sri Lanka,"Ragama, Sri Lanka",,"Ragama, Sri Lanka",7.028003699999999,79.923,1,,OK,
388,APPROXIMATE,United States,"Minneapolis, MN, USA",,"Minneapolis, MN",44.977753,-93.2650108,1,,OK,
389,APPROXIMATE,Germany,"Hamburg, Germany",,Hamburg,53.5510846,9.9936819,1,,OK,
390,APPROXIMATE,Malaysia,Malaysia,,Malaysia,4.210484,101.975766,1,,OK,
391,APPROXIMATE,United Kingdom,"Oxford, UK",,"Oxford, United Kingdom",51.7520209,-1.2577263,1,,OK,
392,APPROXIMATE,United States,"Oak Creek, WI 53154, USA",,"Oak Creek, WI",42.8858503,-87.8631362,1,53154,OK,
393,APPROXIMATE,United States,"North Carolina, USA",,North Carolina,35.7595731,-79.01929969999999,1,,OK,
394,APPROXIMATE,Brazil,"State of Bahia, Brazil",,"Bahia, Brasil",-12.579738,-41.7007272,1,,OK,
395,APPROXIMATE,India,"Hubballi, Karnataka, India",,"Hubli, Karnataka, India",15.3647083,75.1239547,1,,OK,
396,APPROXIMATE,United Kingdom,United Kingdom,,United Kingdom,55.378051,-3.435973,1,,OK,
397,APPROXIMATE,United Kingdom,"London, UK",,"London, United Kingdom",51.5073509,-0.1277583,1,,OK,
398,APPROXIMATE,France,"Paris, France",,"Paris, France",48.856614,2.3522219,1,,OK,
399,APPROXIMATE,United Kingdom,"Cardiff, UK",,"Cardiff, United Kingdom",51.48158100000001,-3.17909,1,,OK,
400,APPROXIMATE,Germany,Germany,,Germany,51.165691,10.451526,1,,OK,
401,APPROXIMATE,United Kingdom,"Luton, UK",,"Luton, UK",51.8786707,-0.4200255,1,,OK,
402,APPROXIMATE,United Kingdom,"Cornwall, UK",,"Cornwall, UK",50.26604709999999,-5.0527125,1,,OK,
403,APPROXIMATE,Vietnam,"Hanoi, Hoàn Kiếm, Hanoi, Vietnam",,"Hanoi, Vietnam",21.0277644,105.8341598,1,,OK,
404,APPROXIMATE,Switzerland,Switzerland,,Switzerland,46.818188,8.227511999999999,1,,OK,
405,APPROXIMATE,Netherlands,Netherlands,,The Netherlands,52.132633,5.291265999999999,1,,OK,
406,APPROXIMATE,Uzbekistan,"Tashkent Region, Uzbekistan",,"Uzbekistan, Tashkent Province",41.2213234,69.8597406,1,,OK,
407,APPROXIMATE,India,"Bengaluru, Karnataka, India",,"Bangalore, Karnataka, India",12.9715987,77.5945627,1,,OK,
408,APPROXIMATE,India,"Chennai, Tamil Nadu, India",,"Chennai, Tamil Nadu, India",13.0826802,80.2707184,1,,OK,
409,APPROXIMATE,United Kingdom,"The City of Brighton and Hove, UK",,Brighton and Hove,50.8226288,-0.137047,1,,OK,
410,APPROXIMATE,Canada,"Sudbury, ON, Canada",,"Sudbury, ON, Canada",46.522099,-80.9530353,1,,OK,
411,APPROXIMATE,United Kingdom,"Oxford, UK",,"Oxford, UK",51.7520209,-1.2577263,1,,OK,
412,APPROXIMATE,Bulgaria,"Sofia, Bulgaria",,"Sofia, Bulgaria",42.6977082,23.3218675,1,,OK,
413,APPROXIMATE,United Kingdom,United Kingdom,,United Kingdom,55.378051,-3.435973,1,,OK,
414,APPROXIMATE,Trinidad and Tobago,Trinidad and Tobago,,Trinidad and Tobago,10.691803,-61.222503,1,,OK,
415,APPROXIMATE,Germany,"Hamburg, Germany",,"Hamburg, Germany",53.5510846,9.9936819,1,,OK,
416,APPROXIMATE,Ukraine,"Lviv, Lviv Oblast, Ukraine, 79000",,"L'viv, Ukraine",49.839683,24.029717,1,79000,OK,
417,APPROXIMATE,,Ireland,,Ireland,53.1423672,-7.692053599999999,1,,OK,
418,ROOFTOP,United States,"5842 W North Ave, Chicago, IL 60639, USA",,Planet Earth,41.909611,-87.771964,1,60639,OK,
419,APPROXIMATE,United States,"Grand Rapids, MI, USA",,"Grand Rapids, MI",42.9633599,-85.6680863,1,,OK,
420,APPROXIMATE,United States,"Georgia, USA",,Georgia,32.1656221,-82.9000751,1,,OK,
421,APPROXIMATE,Malaysia,"Penang, Malaysia",,Penang Malaysia,5.4163459,100.3327617,1,,OK,
422,APPROXIMATE,Netherlands,"Steenbergen, Netherlands",,"Steenbergen, Netherlands",51.5812395,4.3155991,1,,OK,
423,APPROXIMATE,United Arab Emirates,Dubai - United Arab Emirates,,"Dubai, United Arab Emirates",25.2048493,55.2707828,1,,OK,
424,APPROXIMATE,Indonesia,Indonesia,,Indonesia,-0.789275,113.921327,1,,OK,
425,APPROXIMATE,United States,United States,,United States,37.09024,-95.712891,1,,OK,
426,APPROXIMATE,India,"Delhi, India",,"Delhi, India",28.7040592,77.10249019999999,1,,OK,
427,APPROXIMATE,United Kingdom,"England, UK",,"England, United Kingdom",52.3555177,-1.1743197,1,,OK,
428,APPROXIMATE,Pakistan,Pakistan,,Pakistan,30.375321,69.34511599999999,1,,OK,
429,APPROXIMATE,United States,United States,,USA,37.09024,-95.712891,1,,OK,
430,APPROXIMATE,Brazil,Brazil,,Brazil,-14.235004,-51.92528,1,,OK,
431,ROOFTOP,United States,"265 N 46th St, Rogers, AR 72756, USA",,Yes,36.3362474,-94.1789725,2,72756,OK,
432,APPROXIMATE,Romania,"Iași, Romania",,"Iasi, Romania",47.1584549,27.6014418,1,,OK,
433,APPROXIMATE,Serbia,Serbia,,Serbia,44.016521,21.005859,1,,OK,
434,APPROXIMATE,Denmark,"2600 Glostrup, Denmark",,"Glostrup, Danmark",55.669217,12.402144,1,2600,OK,
435,APPROXIMATE,France,France,,France,46.227638,2.213749,1,,OK,
436,APPROXIMATE,Sweden,"Helsingborg, Sweden",,"Helsingborg, Sweden",56.0464674,12.6945121,1,,OK,
437,APPROXIMATE,United States,"Tahlequah, OK 74464, USA",,"Tahlequah, OK",35.91537,-94.969956,1,74464,OK,
438,APPROXIMATE,Netherlands,Netherlands,,Netherlands,52.132633,5.291265999999999,1,,OK,
439,APPROXIMATE,Netherlands,"Utrecht, Netherlands",,"Utrecht, Netherlands",52.09073739999999,5.1214201,1,,OK,
440,APPROXIMATE,Netherlands,"Amsterdam, Netherlands",,"Amsterdam, Netherlands",52.3702157,4.895167900000001,1,,OK,
441,APPROXIMATE,Vietnam,"Hanoi, Hoàn Kiếm, Hanoi, Vietnam",,"Hanoi, Vietnam",21.0277644,105.8341598,1,,OK,
442,APPROXIMATE,Bolivia,"La Paz, Bolivia",,"La Paz, Bolivia",-16.489689,-68.11929359999999,1,,OK,
443,APPROXIMATE,Chile,"Santiago, Santiago Metropolitan Region, Chile",,"Santiago, Chile",-33.4488897,-70.6692655,1,,OK,
444,APPROXIMATE,France,France,,France,46.227638,2.213749,1,,OK,
445,APPROXIMATE,United States,"Nebraska, USA",,"Nebraska, USA",41.4925374,-99.9018131,1,,OK,
446,APPROXIMATE,,Europe,,Europe,54.5259614,15.2551187,1,,OK,
447,APPROXIMATE,Serbia,"Belgrade, Serbia",,"Belgrade, Serbia",44.786568,20.4489216,1,,OK,
448,APPROXIMATE,Colombia,"Medellin, Antioquia, Colombia",,"Medellín, Antioquia, Colombia",6.244203,-75.5812119,1,,OK,
449,APPROXIMATE,Trinidad and Tobago,Trinidad and Tobago,,Trinidad and Tobago,10.691803,-61.222503,1,,OK,
450,APPROXIMATE,France,"Paris, France",,"Paris, France",48.856614,2.3522219,1,,OK,
451,APPROXIMATE,United States,"New York, NY, USA",,"New York, United States",40.7127753,-74.0059728,1,,OK,
452,APPROXIMATE,India,"Gurugram, Haryana, India",,"Gurgaon, Haryana, India",28.4594965,77.0266383,1,,OK,
453,APPROXIMATE,Russia,"Moscow, Russia",,"Moscow, Russia",55.755826,37.6172999,1,,OK,
454,APPROXIMATE,United States,"Memphis, TN, USA",,"Memphis, TN",35.1495343,-90.0489801,1,,OK,
455,APPROXIMATE,Austria,Austria,,Austria,47.516231,14.550072,1,,OK,
456,GEOMETRIC_CENTER,United States,"Walt Disney World Resort, Orlando, FL 32830, USA",,"A galaxy far, far away...",28.385233,-81.563874,1,32830,OK,
457,APPROXIMATE,India,"Jaipur, Rajasthan, India",,"Jaipur, Rajasthan, India",26.9124336,75.7872709,1,,OK,
458,APPROXIMATE,Côte d'Ivoire,"Abidjan, Côte d'Ivoire",,"Abidjan, Côte d'Ivoire",5.3599517,-4.0082563,1,,OK,
459,APPROXIMATE,France,"Toulouse, France",,Toulouse,43.604652,1.444209,1,,OK,
460,APPROXIMATE,United Kingdom,"Bristol, UK",,"Bristol, United Kingdom",51.454513,-2.58791,1,,OK,
461,APPROXIMATE,Norway,Norway,,Norway,60.47202399999999,8.468945999999999,1,,OK,
462,APPROXIMATE,Kenya,"Kisumu County, Kenya",,"Kisumu County, Kenya",-0.0883757,34.7769911,1,,OK,
463,APPROXIMATE,Brazil,Brazil,,Brazil,-14.235004,-51.92528,1,,OK,
464,APPROXIMATE,Tunisia,Tunisia,,Tunisia,33.886917,9.537499,1,,OK,
465,APPROXIMATE,India,"Bengaluru, Karnataka, India",,"Bangalore, India",12.9715987,77.5945627,1,,OK,
466,APPROXIMATE,United States,"St. Louis, MO, USA",,"St. Louis, MO, United States",38.6270025,-90.19940419999999,1,,OK,
467,APPROXIMATE,India,"Komarapalayam, Tamil Nadu, India",,"Komarapalayam, Tamil Nadu, India",11.4466642,77.6943353,1,,OK,
468,,,,,"Torino, TO, Italia",,,0,,ZERO_RESULTS,
469,APPROXIMATE,India,India,,India,20.593684,78.96288,1,,OK,
470,APPROXIMATE,India,"Delhi, India",,"Delhi, India",28.7040592,77.10249019999999,1,,OK,
471,APPROXIMATE,,Ireland,,Ireland,53.1423672,-7.692053599999999,1,,OK,
472,APPROXIMATE,United Kingdom,United Kingdom,,United Kingdom,55.378051,-3.435973,1,,OK,
473,APPROXIMATE,Hungary,Hungary,,Hungary,47.162494,19.5033041,1,,OK,
474,APPROXIMATE,India,"Hyderabad, Telangana, India",,Hyderabad,17.385044,78.486671,1,,OK,
475,APPROXIMATE,Iran,"Tabriz, East Azerbaijan Province, Iran",,"Tabriz, East Azerbaijan, Iran",38.096239,46.2738013,1,,OK,
476,APPROXIMATE,France,"Paris, France",,"Paris, France",48.856614,2.3522219,1,,OK,
477,APPROXIMATE,India,India,,India,20.593684,78.96288,1,,OK,
478,APPROXIMATE,France,France,,France,46.227638,2.213749,1,,OK,
479,APPROXIMATE,Germany,"Munich, Germany",,"Munich, Germany",48.1351253,11.5819805,1,,OK,
480,APPROXIMATE,Latvia,"Riga, Latvia",,"Riga, Republic of Latvia",56.9496487,24.1051865,1,,OK,
481,APPROXIMATE,United States,"Boston, MA, USA",,"Boston, MA, United States",42.3600825,-71.0588801,1,,OK,
482,APPROXIMATE,United Kingdom,"London, UK",,"London, United Kingdom",51.5073509,-0.1277583,1,,OK,
483,APPROXIMATE,Spain,"Gijón, Asturias, Spain",,"Gijon, Spain",43.5322015,-5.6611195,1,,OK,
484,APPROXIMATE,Tunisia,"Tunis, Tunisia",,"Tunis, Tunisia",36.8064948,10.1815316,1,,OK,
485,APPROXIMATE,United States,"Worcester, MA, USA",,"Worcester, MA",42.2625932,-71.8022934,1,,OK,
486,APPROXIMATE,United States,"Knoxville, TN, USA",,"Knoxville, TN, United States",35.9606384,-83.9207392,1,,OK,
487,APPROXIMATE,United States,"Wisconsin, USA",,Wisconsin,43.7844397,-88.7878678,1,,OK,
488,APPROXIMATE,Denmark,Denmark,,Denmark,56.26392,9.501785,1,,OK,
489,APPROXIMATE,Canada,"Verdun, Montreal, QC, Canada",,"Verdun, Quebec, Canada",45.4548269,-73.5698729,1,,OK,
490,APPROXIMATE,India,"Hyderabad, Telangana, India",,"Hyderabad, Telangana, India",17.385044,78.486671,1,,OK,
491,APPROXIMATE,Namibia,"Windhoek, Namibia",,"Windhoek, Namibia",-22.5608807,17.0657549,1,,OK,
492,APPROXIMATE,India,India,,India,20.593684,78.96288,1,,OK,
493,APPROXIMATE,Turkey,"Istanbul, Turkey",,"Istanbul, Turkey",41.0082376,28.9783589,1,,OK,
494,APPROXIMATE,Romania,"Cluj-Napoca, Romania",,"Cluj-Napoca, Romania",46.7712101,23.6236353,1,,OK,
495,APPROXIMATE,United States,"Miami, FL, USA",,"Miami, FL, United States",25.7616798,-80.1917902,1,,OK,
496,APPROXIMATE,United Kingdom,"London, UK",,"London, United Kingdom",51.5073509,-0.1277583,1,,OK,
497,APPROXIMATE,United Kingdom,"Stoke-on-Trent, UK",,"Stoke-on-Trent, Staffordshire",53.002668,-2.179404,1,,OK,
498,APPROXIMATE,Israel,Israel,,Israel,31.046051,34.851612,1,,OK,
499,APPROXIMATE,United Kingdom,"London, UK",,"London, UK",51.5073509,-0.1277583,1,,OK,
500,APPROXIMATE,United States,"Greenville, SC, USA",,"Greenville, SC, USA",34.85261759999999,-82.3940104,1,,OK,
501,APPROXIMATE,,Ireland,,Ireland,53.1423672,-7.692053599999999,1,,OK,
502,APPROXIMATE,United States,"Macon, GA, USA",,"Macon, GA",32.8406946,-83.6324022,1,,OK,
503,APPROXIMATE,India,"Kochi, Kerala, India",,"Kochi, Kerala, India",9.9312328,76.26730409999999,1,,OK,
504,APPROXIMATE,India,"Thiruvananthapuram, Kerala, India",,"Thiruvananthapuram, India",8.5241391,76.9366376,1,,OK,
505,APPROXIMATE,Germany,"Munich, Germany",,"Munich, Germany",48.1351253,11.5819805,1,,OK,
506,APPROXIMATE,United States,"Washington, DC, USA",,"Washington, DC, United States",38.9071923,-77.0368707,1,,OK,
507,APPROXIMATE,Israel,"Giv'atayim, Israel",,"גבעתיים, ישראל",32.072176,34.808871,1,,OK,
508,APPROXIMATE,India,"Karnataka, India",,"Karnataka, India",15.3172775,75.7138884,1,,OK,
509,APPROXIMATE,Belgium,Belgium,,België,50.503887,4.469936,1,,OK,
510,APPROXIMATE,Nigeria,"Enugu, Nigeria",,Enugu Nigeria,6.4583661,7.5463885,1,,OK,
511,APPROXIMATE,United Kingdom,"Glasgow, UK",,"Glasgow, United Kingdom",55.864237,-4.251806,1,,OK,
512,APPROXIMATE,Italy,"Turin, Metropolitan City of Turin, Italy",,"Turin, Italy",45.070312,7.686856499999999,1,,OK,
513,APPROXIMATE,Germany,"Bavaria, Germany",,Bavaria,48.7904472,11.4978895,1,,OK,
514,APPROXIMATE,France,"Nice, France",,"Nice, France",43.7101728,7.261953200000001,1,,OK,
515,APPROXIMATE,United States,"Boston, MA, USA",,"Boston, MA",42.3600825,-71.0588801,1,,OK,
516,APPROXIMATE,India,"Pune, Maharashtra, India",,"Pune, Maharashtra, India",18.5204303,73.8567437,1,,OK,
517,APPROXIMATE,India,"Rajkot, Gujarat, India",,"Rajkot, Gujarat, India",22.3038945,70.80215989999999,1,,OK,
518,APPROXIMATE,United Kingdom,United Kingdom,,UK,55.378051,-3.435973,1,,OK,
519,APPROXIMATE,Ukraine,Ukraine,,Ukraine,48.379433,31.1655799,1,,OK,
520,APPROXIMATE,United Kingdom,"Manchester, UK",,"Manchester, United Kingdom",53.4807593,-2.2426305,1,,OK,
521,APPROXIMATE,Germany,"Munich, Germany",,"Munich, Germany",48.1351253,11.5819805,1,,OK,
522,APPROXIMATE,Netherlands,Netherlands,,Netherlands,52.132633,5.291265999999999,1,,OK,
523,APPROXIMATE,United States,"Knoxville, TN, USA",,"Knoxville, TN, United States",35.9606384,-83.9207392,1,,OK,
524,APPROXIMATE,India,"Gujarat, India",,gujarat,22.258652,71.1923805,1,,OK,
525,APPROXIMATE,Germany,Germany,,Germany,51.165691,10.451526,1,,OK,
526,APPROXIMATE,India,"Bengaluru, Karnataka, India",,"Bengaluru, Karnataka, India",12.9715987,77.5945627,1,,OK,
527,APPROXIMATE,United Kingdom,"London, UK",,"London, United Kingdom",51.5073509,-0.1277583,1,,OK,
528,APPROXIMATE,United Kingdom,"London, UK",,"London, United Kingdom",51.5073509,-0.1277583,1,,OK,
529,APPROXIMATE,Austria,Austria,,Austria,47.516231,14.550072,1,,OK,
530,APPROXIMATE,United States,"Maryland, USA",,"Maryland, United States",39.0457549,-76.64127119999999,1,,OK,
531,APPROXIMATE,United States,"Baltimore, MD, USA",,"Baltimore, MD, United States",39.2903848,-76.6121893,1,,OK,
532,GEOMETRIC_CENTER,United States,"Jl. Cendrawasih IV GKA Suci, Kec. Manyar 61151 GRESIK, Independence, KS 67301, United States",,Mars,37.0901287,-95.71505820000002,1,67301,OK,
533,APPROXIMATE,Austria,"Vienna, Austria",,Vienna,48.2081743,16.3738189,1,,OK,
534,APPROXIMATE,Sweden,Sweden,,Sweden,60.12816100000001,18.643501,1,,OK,
535,APPROXIMATE,France,"Rennes, France",,"Rennes, France",48.117266,-1.6777926,1,,OK,
536,APPROXIMATE,Brazil,Brazil,,Brazil,-14.235004,-51.92528,1,,OK,
537,APPROXIMATE,Switzerland,Switzerland,,Switzerland,46.818188,8.227511999999999,1,,OK,
538,APPROXIMATE,Sweden,"Linköping, Sweden",,"Linköping, Sverige",58.41080700000001,15.6213728,1,,OK,
539,APPROXIMATE,Argentina,"Buenos Aires, Argentina",,"Buenos Aires, Autonomous City of Buenos Aires, Argentina",-34.6036844,-58.3815591,1,,OK,
540,APPROXIMATE,Russia,"Moscow, Russia",,"Moscow, Russia - Magdeburg, Deutschland",55.755826,37.6172999,2,,OK,
541,APPROXIMATE,Netherlands,Netherlands,,The Netherlands,52.132633,5.291265999999999,1,,OK,
542,APPROXIMATE,United Kingdom,"Edinburgh, UK",,"Edinburgh, United Kingdom",55.953252,-3.188267,1,,OK,
543,APPROXIMATE,Ukraine,Ukraine,,Ukraine,48.379433,31.1655799,1,,OK,
544,APPROXIMATE,France,"Bordeaux, France",,"Bordeaux, France",44.837789,-0.57918,1,,OK,
545,APPROXIMATE,Chile,"Santiago, Santiago Metropolitan Region, Chile",,"Santiago, Chile",-33.4488897,-70.6692655,1,,OK,
546,APPROXIMATE,Brazil,"São Paulo, State of São Paulo, Brazil",,"São Paulo, Brazil",-23.5505199,-46.63330939999999,1,,OK,
547,APPROXIMATE,Russia,Russia,,Russia,61.52401,105.318756,1,,OK,
548,APPROXIMATE,India,"Mumbai, Maharashtra, India",,"Mumbai, Maharashtra, India",19.0759837,72.8776559,1,,OK,
549,APPROXIMATE,United States,"Reston, VA, USA",,"Reston, Va",38.9586307,-77.35700279999999,1,,OK,
550,APPROXIMATE,Ukraine,"Lviv, Lviv Oblast, Ukraine, 79000",,"Ukraine, Lviv",49.839683,24.029717,1,79000,OK,
551,APPROXIMATE,Indonesia,"Bandung, Bandung City, West Java, Indonesia",,"Bandung City, West Java, Indonesia",-6.9174639,107.6191228,1,,OK,
552,APPROXIMATE,Greece,Greece,,Greece,39.074208,21.824312,1,,OK,
553,APPROXIMATE,Turkey,Turkey,,Türkiye,38.963745,35.243322,1,,OK,
554,APPROXIMATE,Indonesia,Indonesia,,Indonesia,-0.789275,113.921327,1,,OK,
555,APPROXIMATE,India,"Bengaluru, Karnataka, India",,"Bangalore, India",12.9715987,77.5945627,1,,OK,
556,APPROXIMATE,Netherlands,"Amsterdam, Netherlands",,"Amsterdam, Netherlands",52.3702157,4.895167900000001,1,,OK,
557,APPROXIMATE,Bulgaria,"Sofia, Bulgaria",,"Sofia, Bulgaria",42.6977082,23.3218675,1,,OK,
558,APPROXIMATE,United Kingdom,"Newport, UK",,"Newport, South Wales",51.584151,-2.997664,1,,OK,
559,APPROXIMATE,Germany,Germany,,Germany,51.165691,10.451526,1,,OK,
560,APPROXIMATE,France,"Strasbourg, France",,"Strasbourg, France",48.5734053,7.752111299999999,1,,OK,
561,APPROXIMATE,Argentina,"La Plata, Buenos Aires Province, Argentina",,"La Plata, Argentina",-34.9204948,-57.95356570000001,1,,OK,
562,APPROXIMATE,Italy,"Rome, Metropolitan City of Rome, Italy",,"Rome, Metropolitan City of Rome, Italy",41.9027835,12.4963655,1,,OK,
563,APPROXIMATE,United Kingdom,"Glasgow, UK",,"Glasgow, United Kingdom",55.864237,-4.251806,1,,OK,
564,APPROXIMATE,Denmark,"Aalborg, Denmark",,"Aalborg, Denmark",57.0488195,9.921747,1,,OK,
565,APPROXIMATE,United Kingdom,"Woodbridge, UK",,"Woodbridge, England, United Kingdom",52.095481,1.312571,1,,OK,
566,APPROXIMATE,Russia,"Moscow, Russia",,"Moscow, Russia",55.755826,37.6172999,1,,OK,
567,APPROXIMATE,France,France,,France,46.227638,2.213749,1,,OK,
568,APPROXIMATE,India,"Ahmedabad, Gujarat, India",,"Ahmedabad, Gujarat, India",23.022505,72.5713621,1,,OK,
569,APPROXIMATE,Poland,"Wrocław, Poland",,"Wrocław, Poland",51.1078852,17.0385376,1,51,OK,
570,APPROXIMATE,India,"Bengaluru, Karnataka, India",,Bangalore,12.9715987,77.5945627,1,,OK,
571,APPROXIMATE,Germany,"Neubrandenburg, Germany",,"Neubrandenburg, Deutschland",53.5678292,13.2779269,1,,OK,
572,ROOFTOP,United States,"5842 W North Ave, Chicago, IL 60639, USA",,Planet Earth,41.909611,-87.771964,1,60639,OK,
573,APPROXIMATE,United States,"Daytona Beach, FL, USA",,"Daytona Beach, FL, United States",29.2108147,-81.0228331,1,,OK,
574,APPROXIMATE,Romania,"Cluj-Napoca, Romania",,"Cluj-Napoca, Cluj County, Romania",46.7712101,23.6236353,1,,OK,
575,APPROXIMATE,Poland,Poland,,Poland,51.919438,19.145136,1,,OK,
576,APPROXIMATE,Netherlands,"Eindhoven, Netherlands",,Eindhoven,51.44164199999999,5.4697225,1,,OK,
577,APPROXIMATE,Brazil,"Ribeirao Preto - Conquista, Ribeirão Preto - State of São Paulo, Brazil",,"Ribeirão Preto - SP, Brasil",-21.1704008,-47.8103238,1,,OK,
578,APPROXIMATE,India,"Kolkata, West Bengal, India",,Kolkata,22.572646,88.36389500000001,1,,OK,
579,APPROXIMATE,Sweden,Sweden,,Sweden,60.12816100000001,18.643501,1,,OK,
580,APPROXIMATE,Indonesia,Indonesia,,Indonesia,-0.789275,113.921327,1,,OK,
581,APPROXIMATE,Netherlands,"1759 Callantsoog, Netherlands",,"Callantsoog, The Netherlands",52.835097,4.694376500000001,1,1759,OK,
582,APPROXIMATE,United States,"Pennsylvania, USA",,"Northeast Pennsylvania, USA",41.2033216,-77.1945247,1,,OK,
583,APPROXIMATE,Israel,Israel,,Israel,31.046051,34.851612,1,,OK,
584,APPROXIMATE,India,India,,India,20.593684,78.96288,1,,OK,
585,APPROXIMATE,France,France,,France,46.227638,2.213749,1,,OK,
586,APPROXIMATE,Kenya,"Nairobi, Kenya",,"Nairobi, Kenya",-1.2920659,36.8219462,1,,OK,
587,APPROXIMATE,France,France,,France,46.227638,2.213749,1,,OK,
588,APPROXIMATE,India,"Bengaluru, Karnataka, India",,"Bangalore, Karnataka, India",12.9715987,77.5945627,1,,OK,
589,APPROXIMATE,Ukraine,Ukraine,,Ukraine,48.379433,31.1655799,1,,OK,
590,APPROXIMATE,United States,"Texas, USA",,"Texas, United States",31.9685988,-99.9018131,1,,OK,
591,APPROXIMATE,India,"New Delhi, Delhi, India",,"New Delhi, Delhi, India",28.6139391,77.2090212,1,,OK,
592,APPROXIMATE,France,"Aix-en-Provence, France",,"Aix-en-Provence, France",43.529742,5.447426999999999,1,,OK,
593,APPROXIMATE,India,"Bengaluru, Karnataka, India",,"Bengaluru, Karnataka, India",12.9715987,77.5945627,1,,OK,
594,APPROXIMATE,United States,"Minneapolis, MN, USA",,"Minneapolis, MN, USA",44.977753,-93.2650108,1,,OK,
595,APPROXIMATE,Germany,"Berlin, Germany",,Berlin,52.52000659999999,13.404954,1,,OK,
596,APPROXIMATE,India,"Ahmedabad, Gujarat, India",,"Ahmadabad, India",23.022505,72.5713621,1,,OK,
597,APPROXIMATE,India,"Mumbai, Maharashtra, India",,"Mumbai, India",19.0759837,72.8776559,1,,OK,
598,APPROXIMATE,,Ireland,,Ireland,53.1423672,-7.692053599999999,1,,OK,
599,APPROXIMATE,Pakistan,"Lahore, Punjab, Pakistan",,"Lahore, Punjab, Pakistan",31.5203696,74.35874729999999,1,,OK,
600,APPROXIMATE,Ukraine,"Dnipro, Dnipropetrovsk Oblast, Ukraine, 49000",,"Dnipro, Днепропетровская область, Украина",48.464717,35.046183,1,49000,OK,
601,APPROXIMATE,Iran,Iran,,Iran,32.427908,53.688046,1,,OK,
602,,,,,window.document,,,0,,ZERO_RESULTS,
603,APPROXIMATE,Pakistan,"Karachi, Karachi City, Sindh, Pakistan",,"Karachi, Pakistan",24.8607343,67.0011364,1,,OK,
604,APPROXIMATE,Czechia,Czechia,,Czech Republic,49.81749199999999,15.472962,1,,OK,
605,APPROXIMATE,Brazil,Brazil,,Brazil,-14.235004,-51.92528,1,,OK,
606,APPROXIMATE,Netherlands,Netherlands,,Netherlands,52.132633,5.291265999999999,1,,OK,
607,APPROXIMATE,India,"Hyderabad, Telangana, India",,"Hyderabad, India",17.385044,78.486671,1,,OK,
608,APPROXIMATE,India,India,,India,20.593684,78.96288,1,,OK,
609,APPROXIMATE,Russia,"Moscow, Russia",,"Moscow, Russia",55.755826,37.6172999,1,,OK,
610,APPROXIMATE,Turkey,Turkey,,Turkey,38.963745,35.243322,1,,OK,
611,APPROXIMATE,Italy,"Florence, Metropolitan City of Florence, Italy",,"Florence, Metropolitan City of Florence, Italy",43.7695604,11.2558136,1,,OK,
612,APPROXIMATE,India,"Chennai, Tamil Nadu, India",,"Chennai, Tamil Nadu, India",13.0826802,80.2707184,1,,OK,
613,APPROXIMATE,United Kingdom,"Bournemouth, UK",,"Bournemouth, United Kingdom",50.719164,-1.880769,1,,OK,
614,APPROXIMATE,Ukraine,"Lviv, Lviv Oblast, Ukraine, 79000",,"Lviv, Lviv Oblast, Ukraine",49.839683,24.029717,1,79000,OK,
615,APPROXIMATE,India,India,,India,20.593684,78.96288,1,,OK,
616,APPROXIMATE,Germany,Germany,,Germany,51.165691,10.451526,1,,OK,
617,APPROXIMATE,India,"Kerala, India",,"Kerala, India",10.8505159,76.2710833,1,,OK,
618,APPROXIMATE,Nigeria,"Owerri, Nigeria",,"Owerri, Nigeria",5.489059,7.0175879,1,,OK,
619,APPROXIMATE,United States,"Orlando, FL, USA",,"Orlando, FL",28.5383355,-81.3792365,1,,OK,
620,ROOFTOP,United States,"7502 S Winston Pl, Tulsa, OK 74136, USA",,,36.0545737,-95.923037,1,74136,OK,
621,APPROXIMATE,India,"Noida, Uttar Pradesh, India",,Noida,28.5355161,77.3910265,1,,OK,
622,APPROXIMATE,India,"Bengaluru, Karnataka, India",,"Bengaluru, Karnataka, India",12.9715987,77.5945627,1,,OK,
623,APPROXIMATE,Slovenia,Slovenia,,Slovenia,46.151241,14.995463,1,,OK,
624,APPROXIMATE,Belgium,"Brussels, Belgium",,"Bruxelles, Belgique",50.8503463,4.3517211,1,,OK,
625,APPROXIMATE,Egypt,"Cairo, Cairo Governorate, Egypt",,"Cairo, Egypt",30.0444196,31.2357116,1,,OK,
626,APPROXIMATE,India,"Bengaluru, Karnataka, India",,"Bengaluru, India",12.9715987,77.5945627,1,,OK,
627,APPROXIMATE,United Kingdom,"Nottingham, UK",,"Nottingham, United Kingdom",52.95478319999999,-1.1581086,1,,OK,
628,APPROXIMATE,Nepal,"Biratnagar 56613, Nepal",,Biratngar Nepalal,26.4524746,87.27178099999999,1,56613,OK,
629,APPROXIMATE,India,"Chennai, Tamil Nadu, India",,"Chennai, Tamil Nadu, India",13.0826802,80.2707184,1,,OK,
630,APPROXIMATE,Russia,Russia,,Russia,61.52401,105.318756,1,,OK,
631,APPROXIMATE,United Kingdom,United Kingdom,,UK,55.378051,-3.435973,1,,OK,
632,APPROXIMATE,Spain,"Barcelona, Spain",,"Barcelona, Spain",41.3850639,2.1734035,1,,OK,
633,APPROXIMATE,India,"Hyderabad, Telangana, India",,"Hyderabad, India",17.385044,78.486671,1,,OK,
634,APPROXIMATE,Germany,"Leipzig, Germany",,"Leipzig, Deutschland",51.3396955,12.3730747,1,,OK,
635,APPROXIMATE,India,"Bengaluru, Karnataka, India",,"Bangalore, Karnataka, India",12.9715987,77.5945627,1,,OK,
636,APPROXIMATE,United Kingdom,"London, UK",,"London, United Kingdom",51.5073509,-0.1277583,1,,OK,
637,APPROXIMATE,India,"Kolkata, West Bengal, India",,"Kolkata, West Bengal, India",22.572646,88.36389500000001,1,,OK,
638,APPROXIMATE,India,"Hyderabad, Telangana, India",,"Hyderabad, Telangana, India",17.385044,78.486671,1,,OK,
639,APPROXIMATE,Bangladesh,"Chittagong, Bangladesh",,"Chittagong, Bangladesh",22.356851,91.7831819,1,,OK,
640,APPROXIMATE,Germany,Germany,,Germany,51.165691,10.451526,1,,OK,
641,APPROXIMATE,Austria,Austria,,Austria,47.516231,14.550072,1,,OK,
642,APPROXIMATE,Denmark,Denmark,,Denmark,56.26392,9.501785,1,,OK,
643,APPROXIMATE,France,"92000 Nanterre, France",,"Nanterre, France",48.892423,2.215331,1,92000,OK,
644,APPROXIMATE,Turkey,"Istanbul, Turkey",,"İstanbul, Türkiye",41.0082376,28.9783589,1,,OK,
645,APPROXIMATE,Hong Kong,Hong Kong,,Hong Kong,22.396428,114.109497,1,,OK,
646,APPROXIMATE,India,"Bengaluru, Karnataka, India",,"Bangalore, Karnataka, India",12.9715987,77.5945627,1,,OK,
647,APPROXIMATE,India,"Bengaluru, Karnataka, India",,"Bangalore, Karnataka, India",12.9715987,77.5945627,1,,OK,
648,APPROXIMATE,India,"Chennai, Tamil Nadu, India",,"Chennai, Tamil Nadu, India",13.0826802,80.2707184,1,,OK,
649,APPROXIMATE,Ukraine,Ukraine,,Ukraine,48.379433,31.1655799,1,,OK,
650,APPROXIMATE,Philippines,"Cebu City, Cebu, Philippines",,"Cebu City, Central Visayas, Philippines",10.3156992,123.8854366,1,,OK,
651,APPROXIMATE,Ukraine,Ukraine,,Ukraine,48.379433,31.1655799,1,,OK,
652,APPROXIMATE,Spain,"Barcelona, Spain",,"Barcelona, Spain",41.3850639,2.1734035,1,,OK,
653,APPROXIMATE,India,"Delhi, India",,"Delhi, India",28.7040592,77.10249019999999,1,,OK,
654,APPROXIMATE,Venezuela,"San Cristobal, Táchira, Venezuela",,"San Cristóbal, Táchira, Venezuela",7.771357200000001,-72.22614659999999,1,,OK,
655,APPROXIMATE,India,"Ahmedabad, Gujarat, India",,"Ahmedabad, Gujarat, India",23.022505,72.5713621,1,,OK,
656,APPROXIMATE,United Arab Emirates,Dubai - United Arab Emirates,,"Dubai, United Arab Emirates",25.2048493,55.2707828,1,,OK,
657,APPROXIMATE,India,"Surat, Gujarat, India",,"Surat, Gujarat, India",21.1702401,72.83106070000001,1,,OK,
658,APPROXIMATE,United Kingdom,"Plymouth, UK",,"Plymouth, United Kingdom",50.3754565,-4.1426565,1,,OK,
659,APPROXIMATE,Bangladesh,"Dhaka, Bangladesh",,"Dhaka, Dhaka Division, Bangladesh",23.810332,90.4125181,1,,OK,
660,APPROXIMATE,Netherlands,"Amsterdam, Netherlands",,"Amsterdam, Netherlands",52.3702157,4.895167900000001,1,,OK,
661,APPROXIMATE,United States,"San Francisco, CA, USA",,"San Francisco, CA, United States",37.7749295,-122.4194155,1,,OK,
662,APPROXIMATE,India,"Bengaluru, Karnataka, India",,"Bangalore, India",12.9715987,77.5945627,1,,OK,
663,APPROXIMATE,India,"Coimbatore, Tamil Nadu, India",,"Coimbatore, India",11.0168445,76.9558321,1,,OK,
664,APPROXIMATE,Australia,"Adelaide SA, Australia",,Australia/Adelaide,-34.9284989,138.6007456,1,,OK,
665,APPROXIMATE,Sri Lanka,"Gampaha, Sri Lanka",,"Gampaha, Sri Lanka",7.0873101,80.01436559999999,1,,OK,
666,APPROXIMATE,Portugal,"Lisbon, Portugal",,"Lisbon, Portugal",38.7222524,-9.1393366,1,,OK,
667,APPROXIMATE,Germany,"Munich, Germany",,"München, Deutschland",48.1351253,11.5819805,1,,OK,
668,APPROXIMATE,India,"Gurugram, Haryana, India",,"Gurgaon, Haryana, India",28.4594965,77.0266383,1,,OK,
669,APPROXIMATE,Italy,"Rome, Metropolitan City of Rome, Italy",,"Rome, Italy",41.9027835,12.4963655,1,,OK,
670,APPROXIMATE,Netherlands,"Amsterdam, Netherlands",,"Amsterdam, Netherlands",52.3702157,4.895167900000001,1,,OK,
671,APPROXIMATE,Germany,Germany,,Germany,51.165691,10.451526,1,,OK,
672,APPROXIMATE,Denmark,Denmark,,Denmark,56.26392,9.501785,1,,OK,
673,APPROXIMATE,India,"Hyderabad, Telangana, India",,"Hyderabad, Telangana, India",17.385044,78.486671,1,,OK,
674,APPROXIMATE,Belgium,"Ghent, Belgium",,"Ghent, Belgium",51.0543422,3.7174243,1,,OK,
675,APPROXIMATE,India,"Kalaburagi, Karnataka 585101, India",,"Gulbarga, Karnataka 585101, India",17.3298307,76.8634479,1,585101,OK,
676,APPROXIMATE,India,"Mumbai Suburban, Maharashtra, India",,"Mumbai Suburban, Maharashtra, India",19.1538231,72.8751786,1,,OK,
677,APPROXIMATE,Switzerland,"Zürich, Switzerland",,"Zürich, Schweiz",47.3768866,8.541694,1,,OK,
678,APPROXIMATE,Iran,"Tehran, Tehran Province, Iran",,"Tehran, Iran",35.6891975,51.3889736,1,,OK,
679,APPROXIMATE,India,"Bengaluru, Karnataka, India",,"Bangalore, Karnataka, India",12.9715987,77.5945627,1,,OK,
680,APPROXIMATE,India,"Gorakhpur, Uttar Pradesh, India",,"Gorakhpur, Uttar Pradesh, India",26.7346743,83.33618799999999,2,,OK,
681,APPROXIMATE,Pakistan,"Lahore, Punjab, Pakistan",,"Lahore, Punjab, Pakistan",31.5203696,74.35874729999999,1,,OK,
682,APPROXIMATE,South Africa,South Africa,,South Africa,-30.559482,22.937506,1,,OK,
683,APPROXIMATE,India,India,,India,20.593684,78.96288,1,,OK,
684,APPROXIMATE,United Kingdom,"England, UK",,"England, United Kingdom",52.3555177,-1.1743197,1,,OK,
685,APPROXIMATE,Pakistan,Pakistan,,Pakistan,30.375321,69.34511599999999,1,,OK,
686,APPROXIMATE,India,"Delhi, India",,"Delhi, India",28.7040592,77.10249019999999,1,,OK,
687,APPROXIMATE,India,"Mumbai, Maharashtra, India",,"Mumbai, Maharashtra, India",19.0759837,72.8776559,1,,OK,
688,APPROXIMATE,Romania,"Bucharest, Romania",,"Bucharest, Romania",44.4267674,26.1025384,1,,OK,
689,APPROXIMATE,Ukraine,"Kharkiv, Kharkiv Oblast, Ukraine",,"Kharkov, Ukraine",49.9935,36.230383,1,,OK,
690,APPROXIMATE,Greece,"Patras, Greece",,"Πάτρα, Αχαΐα, Ελλάδα",38.2466395,21.734574,1,,OK,
691,APPROXIMATE,United Kingdom,"Oxfordshire, UK",,"Oxfordshire, England, United Kingdom",51.7612056,-1.2464674,1,,OK,
692,APPROXIMATE,India,"Gujarat, India",,"Gujarat, India",22.258652,71.1923805,1,,OK,
693,APPROXIMATE,Czechia,"Prague, Czechia",,"Praha, Česko",50.0755381,14.4378005,1,,OK,
694,APPROXIMATE,India,"Kochi, Kerala, India",,"Kochi, India",9.9312328,76.26730409999999,1,,OK,
695,APPROXIMATE,Belgium,"Ghent, Belgium",,"Gent, België",51.0543422,3.7174243,1,,OK,
696,APPROXIMATE,Pakistan,"Islamabad, Islamabad Capital Territory, Pakistan",,"Islamabad, Islamabad Capital Territory, Pakistan",33.6844202,73.04788479999999,1,,OK,
697,APPROXIMATE,United Kingdom,"London, UK",,"London, United Kingdom",51.5073509,-0.1277583,1,,OK,
698,APPROXIMATE,Israel,Israel,,Israel,31.046051,34.851612,1,,OK,
699,APPROXIMATE,Philippines,Philippines,,Philippines,12.879721,121.774017,1,,OK,
700,APPROXIMATE,Croatia,"Rijeka, Croatia",,"Rijeka, Croatia",45.3270631,14.442176,1,,OK,
701,APPROXIMATE,Bangladesh,Bangladesh,,Bangladesh,23.684994,90.356331,1,,OK,
702,APPROXIMATE,India,"Chennai, Tamil Nadu, India",,"Chennai, Tamil Nadu, India",13.0826802,80.2707184,1,,OK,
703,APPROXIMATE,India,"Bengaluru, Karnataka, India",,"Bangalore, Karnataka, India",12.9715987,77.5945627,1,,OK,
704,APPROXIMATE,Sri Lanka,"Colombo, Sri Lanka",,"Colombo, Sri Lanka",6.9270786,79.861243,1,,OK,
705,APPROXIMATE,India,"Chennai, Tamil Nadu, India",,"Chennai, Tamil Nadu, India",13.0826802,80.2707184,1,,OK,
706,APPROXIMATE,India,"Bengaluru, Karnataka, India",,"Bangalore, Karnataka, India",12.9715987,77.5945627,1,,OK,
707,APPROXIMATE,Kazakhstan,"Astana 020000, Kazakhstan",,"Astana, Kazakhstan",51.16052269999999,71.4703558,1,020000,OK,
708,APPROXIMATE,India,"Anand, Gujarat, India",,"Anand, Gujarat, India",22.5645175,72.928871,1,,OK,
709,APPROXIMATE,New Zealand,"Auckland, New Zealand",,"Auckland, New Zealand",-36.8484597,174.7633315,1,,OK,
710,APPROXIMATE,Sweden,"Stockholm, Sweden",,"Stockholm, Sweden",59.32932349999999,18.0685808,1,,OK,
711,APPROXIMATE,India,"Vadodara, Gujarat, India",,"Vadodara, India",22.3071588,73.1812187,1,,OK,
712,ROOFTOP,Saudi Arabia,"Al Dawud, Al Hamra, Riyadh 13217, Saudi Arabia",,My house,24.7779791,46.7619812,1,13217,OK,
713,APPROXIMATE,Germany,Germany,,Germany,51.165691,10.451526,1,,OK,
714,ROOFTOP,United Kingdom,"Little Italy, 51 N Parade, Aberystwyth SY23 2JN, UK",,Italy / United Kingdom,52.415732,-4.0812791,1,SY23 2JN,OK,
715,APPROXIMATE,India,"Coimbatore, Tamil Nadu, India",,"Coimbatore, Tamil Nadu, India",11.0168445,76.9558321,1,,OK,
716,APPROXIMATE,Denmark,Denmark,,Denmark,56.26392,9.501785,1,,OK,
717,APPROXIMATE,India,"Jaipur, Rajasthan, India",,"Jaipur, Rajasthan, India",26.9124336,75.7872709,1,,OK,
718,APPROXIMATE,Germany,"Cologne, Germany",,"Cologne, Germany",50.937531,6.9602786,1,,OK,
719,APPROXIMATE,United Kingdom,"Brighton, UK",,"Brighton, UK",50.82253000000001,-0.137163,1,,OK,
720,APPROXIMATE,Nepal,"Kathmandu 44600, Nepal",,"Kathmandu, Nepal",27.7172453,85.3239605,1,44600,OK,
721,APPROXIMATE,Pakistan,"Islamabad, Islamabad Capital Territory, Pakistan",,"Islamabad, Pakistan",33.6844202,73.04788479999999,1,,OK,
722,APPROXIMATE,Sri Lanka,Sri Lanka,,Sri Lanka,7.873053999999999,80.77179699999999,1,,OK,
723,APPROXIMATE,India,India,,India,20.593684,78.96288,1,,OK,
724,APPROXIMATE,India,"Bhubaneswar, Odisha, India",,"Bhubaneswar, Odisha, India",20.2960587,85.8245398,1,,OK,
725,APPROXIMATE,Norway,"Trondheim, Norway",,"Trondheim, Norway",63.4305149,10.3950528,1,,OK,
726,APPROXIMATE,Spain,Spain,,Spain,40.46366700000001,-3.74922,1,,OK,
727,APPROXIMATE,Kazakhstan,"Almaty, Kazakhstan",,"Almaty, Almaty Province, Kazakhstan",43.2220146,76.8512485,1,,OK,
728,APPROXIMATE,Colombia,"Medellin, Antioquia, Colombia",,"Medellín - Antioquia, Colombia",6.244203,-75.5812119,1,,OK,
729,APPROXIMATE,Israel,"Nitzan, Israel",,"Nitzan, Israel",31.737518,34.630804,1,,OK,
730,APPROXIMATE,India,India,,India,20.593684,78.96288,1,,OK,
731,APPROXIMATE,Bangladesh,"Dhaka, Bangladesh",,"Dhaka, Dhaka Division, Bangladesh",23.810332,90.4125181,1,,OK,
732,APPROXIMATE,India,"Bengaluru, Karnataka, India",,"Bangalore, India",12.9715987,77.5945627,1,,OK,
733,APPROXIMATE,India,"Thiruvananthapuram, Kerala, India",,"Trivandrum, Kerala, India",8.5241391,76.9366376,1,,OK,
734,APPROXIMATE,South Africa,South Africa,,South Africa,-30.559482,22.937506,1,,OK,
735,APPROXIMATE,Poland,Poland,,Poland,51.919438,19.145136,1,,OK,
736,APPROXIMATE,India,"Faridabad, Haryana, India",,"Faridabad, Haryana, India",28.4089123,77.3177894,1,,OK,
737,APPROXIMATE,Netherlands,"Utrecht, Netherlands",,"Utrecht, Netherlands",52.09073739999999,5.1214201,1,,OK,
738,APPROXIMATE,United Kingdom,United Kingdom,,United Kingdom,55.378051,-3.435973,1,,OK,
739,APPROXIMATE,Sweden,"Malmö, Sweden",,"Malmö, Sweden",55.604981,13.003822,1,,OK,
740,APPROXIMATE,Pakistan,"Lahore, Punjab, Pakistan",,"Lahore, Punjab, Pakistan",31.5203696,74.35874729999999,1,,OK,
741,APPROXIMATE,Turkey,"Istanbul, Turkey",,"İstanbul, Türkiye",41.0082376,28.9783589,1,,OK,
742,APPROXIMATE,United Kingdom,"Reading, UK",,"Reading, United Kingdom",51.4542645,-0.9781303,1,,OK,
743,APPROXIMATE,India,"Bengaluru, Karnataka, India",,"Bangalore, Karnataka, India",12.9715987,77.5945627,1,,OK,
744,APPROXIMATE,India,"Bengaluru, Karnataka, India",,"Bangalore, Karnataka, India",12.9715987,77.5945627,1,,OK,
745,APPROXIMATE,United Kingdom,"Derbyshire, UK",,"Derbyshire, United Kingdom",53.1046782,-1.5623885,1,,OK,
746,APPROXIMATE,India,"Kochi, Kerala, India",,Cochin,9.9312328,76.26730409999999,1,,OK,
747,APPROXIMATE,India,"Bengaluru, Karnataka, India",,"Bengaluru, Karnataka, India",12.9715987,77.5945627,1,,OK,
748,APPROXIMATE,Romania,"Bacău, Romania",,"Bacău, Bacău Country, Romania",46.5670437,26.9145748,1,,OK,
749,APPROXIMATE,India,"Delhi, India",,"Delhi, India",28.7040592,77.10249019999999,1,,OK,
750,APPROXIMATE,Romania,"Bucharest, Romania",,"Bucharest, Romania",44.4267674,26.1025384,1,,OK,
751,APPROXIMATE,India,"Chennai, Tamil Nadu, India",,"Chennai, Tamil Nadu, India",13.0826802,80.2707184,1,,OK,
752,APPROXIMATE,Bangladesh,"Dhaka, Bangladesh",,"Dhaka, Dhaka Division, Bangladesh",23.810332,90.4125181,1,,OK,
753,APPROXIMATE,India,"Jabalpur, Madhya Pradesh, India",,Jabalpur (India),23.181467,79.9864071,1,,OK,
754,APPROXIMATE,Brazil,"Belo Horizonte - State of Minas Gerais, Brazil",,"Belo Horizonte - MG, Brasil",-19.9245018,-43.93523760000001,1,,OK,
755,APPROXIMATE,United Arab Emirates,Dubai - United Arab Emirates,,Dubai - United Arab Emirates,25.2048493,55.2707828,1,,OK,
756,APPROXIMATE,Russia,"Moscow, Russia",,"Moscow, Russia",55.755826,37.6172999,1,,OK,
757,APPROXIMATE,China,"Shenzhen, Guangdong, China",,"Shenzhen, Guangdong, China",22.543096,114.057865,1,,OK,
758,APPROXIMATE,India,"Bengaluru, Karnataka, India",,"Bangalore,India",12.9715987,77.5945627,1,,OK,
759,APPROXIMATE,India,"Madurai, Tamil Nadu, India",,"Madurai, India",9.9252007,78.1197754,1,,OK,
760,APPROXIMATE,India,"Kochi, Kerala, India",,"Cochin, Kerala, India",9.9312328,76.26730409999999,1,,OK,
761,APPROXIMATE,India,"Delhi, India",,"Delhi, India",28.7040592,77.10249019999999,1,,OK,
762,APPROXIMATE,India,"Udaipur, Rajasthan, India",,"Udaipur, Rajasthan, India",24.585445,73.712479,1,,OK,
763,APPROXIMATE,Italy,"31100 Treviso, Province of Treviso, Italy",,Treviso,45.6668893,12.2430437,1,31100,OK,
764,APPROXIMATE,India,"Bengaluru, Karnataka, India",,"Bangalore, Karnataka, India",12.9715987,77.5945627,1,,OK,
765,APPROXIMATE,Switzerland,"Geneva, Switzerland",,"Geneva, Switzerland",46.2043907,6.1431577,1,,OK,
766,APPROXIMATE,Bangladesh,Bangladesh,,Bangladesh,23.684994,90.356331,1,,OK,
767,APPROXIMATE,India,"Chennai, Tamil Nadu, India",,"Chennai, Tamil Nadu, India",13.0826802,80.2707184,1,,OK,
768,APPROXIMATE,India,"Bengaluru, Karnataka, India",,"Bangalore, Karnataka, India",12.9715987,77.5945627,1,,OK,
769,APPROXIMATE,Italy,"Naples, Metropolitan City of Naples, Italy",,"Napoli, Italy",40.8517746,14.2681244,1,,OK,
770,APPROXIMATE,India,"Pune, Maharashtra, India",,"Pune, Maharashtra, India",18.5204303,73.8567437,1,,OK,
771,APPROXIMATE,India,"Etawah, Uttar Pradesh, India",,"Etawah, Uttar Pradesh, India",26.8117116,79.0046898,1,,OK,
772,APPROXIMATE,United Arab Emirates,Dubai - United Arab Emirates,,Dubai - United Arab Emirates,25.2048493,55.2707828,1,,OK,
773,APPROXIMATE,Italy,"Rome, Metropolitan City of Rome, Italy",,"Rome, Metropolitan City of Rome, Italy",41.9027835,12.4963655,1,,OK,
774,APPROXIMATE,Pakistan,"Karachi, Karachi City, Sindh, Pakistan",,"Karachi, Sindh, Pakistan",24.8607343,67.0011364,1,,OK,
775,APPROXIMATE,India,"Chennai, Tamil Nadu, India",,"Chennai, India",13.0826802,80.2707184,1,,OK,
776,APPROXIMATE,India,"Delhi, India",,"Delhi, India",28.7040592,77.10249019999999,1,,OK,
777,APPROXIMATE,Sri Lanka,"Colombo, Sri Lanka",,"Colombo, Western Province, Sri Lanka",6.9270786,79.861243,1,,OK,
778,APPROXIMATE,Spain,"Zaragoza, Spain",,"Zaragoza, Spain",41.6488226,-0.8890853,1,,OK,
779,APPROXIMATE,Pakistan,"Islamabad Capital Territory, Pakistan",,"Islamabad Capital Territory, Pakistan",33.7204997,73.0405277,1,,OK,
780,APPROXIMATE,India,"Bengaluru, Karnataka, India",,"Bangalore, Karnataka, India",12.9715987,77.5945627,1,,OK,
781,APPROXIMATE,United Kingdom,"England, UK",,"England, United Kingdom",52.3555177,-1.1743197,1,,OK,
782,APPROXIMATE,United Kingdom,"Surrey, UK",,"Surrey, UK",51.31475930000001,-0.5599501,1,,OK,
783,APPROXIMATE,Iran,"Tehran, Tehran Province, Iran",,"Iran, Tehran",35.6891975,51.3889736,1,,OK,
784,APPROXIMATE,Ukraine,Ukraine,,Ukraine,48.379433,31.1655799,1,,OK,
785,APPROXIMATE,India,"New Delhi, Delhi, India",,New Delhi,28.6139391,77.2090212,1,,OK,
786,APPROXIMATE,India,"Vellore, Tamil Nadu, India",,"Vellore, Tamil Nadu, India",12.9165167,79.13249859999999,1,,OK,
787,APPROXIMATE,Ukraine,"Kharkiv, Kharkiv Oblast, Ukraine",,"Kharkiv, Ukraine",49.9935,36.230383,1,,OK,
788,APPROXIMATE,Pakistan,"Islamabad, Islamabad Capital Territory, Pakistan",,"Islamabad, Islamabad Capital Territory, Pakistan",33.6844202,73.04788479999999,1,,OK,
789,APPROXIMATE,Italy,"Florence, Metropolitan City of Florence, Italy",,"Florence, Italy",43.7695604,11.2558136,1,,OK,
790,APPROXIMATE,India,"Hyderabad, Telangana, India",,"Hyderabad, Telangana, India",17.385044,78.486671,1,,OK,
791,APPROXIMATE,United Kingdom,"Cambridge, UK",,"Cambridge, United Kingdom",52.205337,0.121817,1,,OK,
792,APPROXIMATE,India,"Bengaluru, Karnataka, India",,"Bengaluru, Karnataka, India",12.9715987,77.5945627,1,,OK,
793,APPROXIMATE,India,"Bengaluru, Karnataka, India",,Bangalore,12.9715987,77.5945627,1,,OK,
794,APPROXIMATE,India,"Ahmedabad, Gujarat, India",,"Ahmedabad, India",23.022505,72.5713621,1,,OK,
795,APPROXIMATE,Germany,"Aachen, Germany",,"Aachen, Germany",50.7753455,6.083886800000001,1,,OK,
796,APPROXIMATE,Germany,"Berlin, Germany",,"Berlin, Germany",52.52000659999999,13.404954,1,,OK,
797,APPROXIMATE,Russia,"Moscow, Russia",,"Moscow, Russia",55.755826,37.6172999,1,,OK,
798,APPROXIMATE,Netherlands,Netherlands,,Netherlands,52.132633,5.291265999999999,1,,OK,
799,APPROXIMATE,United States,United States,,United States,37.09024,-95.712891,1,,OK,
800,APPROXIMATE,United Kingdom,"London, UK",,London,51.5073509,-0.1277583,1,,OK,
801,APPROXIMATE,Croatia,"Zagreb, Croatia",,"Zagreb, Hrvatska",45.8150108,15.9819189,1,,OK,
802,APPROXIMATE,Serbia,Serbia,,Serbia,44.016521,21.005859,1,,OK,
803,APPROXIMATE,India,"Kolkata, West Bengal, India",,"Kolkata, India",22.572646,88.36389500000001,1,,OK,
804,APPROXIMATE,India,India,,India,20.593684,78.96288,1,,OK,
805,APPROXIMATE,Russia,"Moscow, Russia",,"Moscow, Russia",55.755826,37.6172999,1,,OK,
806,APPROXIMATE,Bangladesh,"Dhaka, Bangladesh",,"Dhaka, Bangladesh",23.810332,90.4125181,1,,OK,
807,APPROXIMATE,Netherlands,"Amsterdam, Netherlands",,"Amsterdam, Nederland",52.3702157,4.895167900000001,1,,OK,
808,APPROXIMATE,Denmark,"Copenhagen, Denmark",,"Copenhagen, Denmark",55.6760968,12.5683372,1,,OK,
809,APPROXIMATE,India,"Coimbatore, Tamil Nadu, India",,"Coimbatore, Tamil Nadu, India",11.0168445,76.9558321,1,,OK,
810,APPROXIMATE,Pakistan,"Lahore, Punjab, Pakistan",,"Lahore, Punjab, Pakistan",31.5203696,74.35874729999999,1,,OK,
811,APPROXIMATE,Italy,Italy,,Italia,41.87194,12.56738,1,,OK,
812,APPROXIMATE,United Kingdom,"Coventry, UK",,Coventry,52.406822,-1.519693,3,,OK,
813,APPROXIMATE,India,"Bengaluru, Karnataka, India",,"Bangalore, Karnataka, India",12.9715987,77.5945627,1,,OK,
814,APPROXIMATE,Israel,"Jerusalem, Israel",,"Jerusalem, Israel",31.768319,35.21371,1,,OK,
815,APPROXIMATE,Germany,Germany,,Germany,51.165691,10.451526,1,,OK,
816,APPROXIMATE,India,"Pune, Maharashtra, India",,"Pune, Maharashtra, India",18.5204303,73.8567437,1,,OK,
817,APPROXIMATE,France,"Metz, France",,"Metz, France",49.1193089,6.175715599999999,1,,OK,
818,APPROXIMATE,Israel,"Haifa, Israel",,"Haifa, Israel",32.7940463,34.989571,1,,OK,
819,APPROXIMATE,Pakistan,"Islamabad, Islamabad Capital Territory, Pakistan",,"Islamabad, Islamabad Capital Territory, Pakistan",33.6844202,73.04788479999999,1,,OK,
820,APPROXIMATE,Brazil,"São Paulo, State of São Paulo, Brazil",,"São Paulo - SP, Brasil",-23.5505199,-46.63330939999999,1,,OK,
821,ROOFTOP,United States,"7502 S Winston Pl, Tulsa, OK 74136, USA",,,36.0545737,-95.923037,1,74136,OK,
822,APPROXIMATE,Romania,"Bucharest, Romania",,"Bucharest, Romania",44.4267674,26.1025384,1,,OK,
823,APPROXIMATE,Pakistan,"Faisalabad, Punjab, Pakistan",,"Faisalabad, Pakistan",31.45036619999999,73.13496049999999,1,,OK,
824,APPROXIMATE,Iran,"Tehran, Tehran Province, Iran",,"Iran, Tehran, Tehran Province",35.6891975,51.3889736,1,,OK,
825,APPROXIMATE,Bangladesh,"Dhaka, Bangladesh",,"Dhaka, Dhaka Division, Bangladesh",23.810332,90.4125181,1,,OK,
826,,,,,virtual memory,,,0,,ZERO_RESULTS,
827,APPROXIMATE,Germany,"Munich, Germany",,"Munich, Germany",48.1351253,11.5819805,1,,OK,
828,APPROXIMATE,Netherlands,"Boxtel, Netherlands",,"Boxtel, Nederland",51.601437,5.3121773,1,,OK,
829,APPROXIMATE,Switzerland,"Lausanne, Switzerland",,"Lausanne, Switzerland",46.5196535,6.6322734,1,,OK,
830,APPROXIMATE,India,"Indore, Madhya Pradesh, India",,"Indore, India",22.7195687,75.8577258,1,,OK,
831,APPROXIMATE,Indonesia,"Yogyakarta, Yogyakarta City, Special Region of Yogyakarta, Indonesia",,"Yogyakarta, Indonesia",-7.7955798,110.3694896,1,,OK,
832,APPROXIMATE,India,India,,India,20.593684,78.96288,1,,OK,
833,APPROXIMATE,India,"Mysuru, Karnataka, India",,"Mysore, Karnataka, India",12.2958104,76.6393805,1,,OK,
834,APPROXIMATE,India,"Gurugram, Haryana, India",,"Gurugram, Haryana, India",28.4594965,77.0266383,1,,OK,
835,APPROXIMATE,India,"Delhi, India",,"Delhi, India",28.7040592,77.10249019999999,1,,OK,
836,APPROXIMATE,South Korea,"Seoul, South Korea",,"Seoul, South Korea",37.566535,126.9779692,1,,OK,
837,APPROXIMATE,United States,"Nederland, CO 80466, USA",,Nederland,39.9613759,-105.5108312,1,80466,OK,
838,APPROXIMATE,Belgium,"Leuven, Belgium",,"Leuven, België",50.8798438,4.7005176,1,,OK,
839,APPROXIMATE,Sri Lanka,Sri Lanka,,Sri Lanka,7.873053999999999,80.77179699999999,1,,OK,
840,APPROXIMATE,Italy,"Milan, Metropolitan City of Milan, Italy",,"Milano, MI, Italia",45.4642035,9.189982,1,,OK,
841,APPROXIMATE,India,"Bengaluru, Karnataka, India",,"Bangalore, Karnataka, India",12.9715987,77.5945627,1,,OK,
842,APPROXIMATE,United Kingdom,"Brighton, UK",,"Brighton, United Kingdom",50.82253000000001,-0.137163,1,,OK,
843,APPROXIMATE,Pakistan,"Lahore, Punjab, Pakistan",,"Lahore, Punjab, Pakistan",31.5203696,74.35874729999999,1,,OK,
844,APPROXIMATE,Tajikistan,"Khujand, Tajikistan",,"Khujand, Sughd Province, Tajikistan",40.26751549999999,69.6452877,1,,OK,
845,APPROXIMATE,France,"39110 Salins-les-Bains, France",,"Salins-les-Bains, Francia",46.939685,5.875801,1,39110,OK,
846,APPROXIMATE,Spain,"Barcelona, Spain",,"Barcelona, Spain",41.3850639,2.1734035,1,,OK,
847,APPROXIMATE,Netherlands,Netherlands,,Netherlands,52.132633,5.291265999999999,1,,OK,
848,APPROXIMATE,Belgium,"Kortrijk, Belgium",,"Kortrijk, België",50.8194776,3.2577263,1,,OK,
849,APPROXIMATE,Ukraine,"Lviv, Lviv Oblast, Ukraine, 79000",,"Ukraine, Lviv",49.839683,24.029717,1,79000,OK,
850,APPROXIMATE,France,"Lyon, France",,"Lyon, France",45.764043,4.835659,1,,OK,
851,APPROXIMATE,India,India,,India,20.593684,78.96288,1,,OK,
852,APPROXIMATE,Norway,"Kristiansand, Norway",,Kristiansand,58.15991189999999,8.0182064,1,,OK,
853,APPROXIMATE,Sri Lanka,"Colombo, Sri Lanka",,"Colombo, Western Province, Sri Lanka",6.9270786,79.861243,1,,OK,
854,APPROXIMATE,India,"Hyderabad, Telangana, India",,HYDERABAD,17.385044,78.486671,1,,OK,
855,APPROXIMATE,Portugal,"Porto, Portugal",,"Porto, Portugal",41.1579438,-8.629105299999999,1,,OK,
856,APPROXIMATE,Germany,Germany,,Germany,51.165691,10.451526,1,,OK,
857,APPROXIMATE,Austria,Austria,,Austria,47.516231,14.550072,1,,OK,
858,APPROXIMATE,United Kingdom,"England, UK",,"England, United Kingdom",52.3555177,-1.1743197,1,,OK,
859,APPROXIMATE,Spain,"Cáceres‎, Cáceres, Spain",,"Cáceres, España",39.4752765,-6.3724247,1,,OK,
860,APPROXIMATE,India,"Coimbatore, Tamil Nadu, India",,"Coimbatore, India",11.0168445,76.9558321,1,,OK,
861,APPROXIMATE,United Kingdom,"Cardiff, UK",,"Cardiff, United Kingdom",51.48158100000001,-3.17909,1,,OK,
862,APPROXIMATE,France,"Strasbourg, France",,"Strasbourg, France",48.5734053,7.752111299999999,1,,OK,
863,APPROXIMATE,Sweden,Sweden,,Sweden,60.12816100000001,18.643501,1,,OK,
864,APPROXIMATE,Russia,"Oryol, Oryol Oblast, Russia",,"Orel, Oryol Oblast, Russia",52.9668468,36.06248980000001,1,,OK,
865,APPROXIMATE,India,"Bengaluru, Karnataka, India",,Bangalore,12.9715987,77.5945627,1,,OK,
866,APPROXIMATE,Nepal,Nepal,,Nepal,28.394857,84.12400799999999,1,,OK,
867,APPROXIMATE,South Africa,"Cape Town, South Africa",,"Cape Town, South Africa",-33.9248685,18.4240553,1,,OK,
868,APPROXIMATE,India,"Chennai, Tamil Nadu, India",,"Chennai, Tamil Nadu, India",13.0826802,80.2707184,1,,OK,
869,APPROXIMATE,Germany,"Heidelberg, Germany",,"Heidelberg, Germany",49.3987524,8.6724335,1,,OK,
870,APPROXIMATE,Sweden,"Stockholm, Sweden",,"Stockholm, Sweden",59.32932349999999,18.0685808,1,,OK,
871,APPROXIMATE,Netherlands,Netherlands,,Netherlands,52.132633,5.291265999999999,1,,OK,
872,APPROXIMATE,France,France,,France,46.227638,2.213749,1,,OK,
873,APPROXIMATE,Israel,"Tel Aviv-Yafo, Israel",,"Tel Aviv-Yafo, Israel",32.0852999,34.78176759999999,1,,OK,
874,APPROXIMATE,Netherlands,Netherlands,,Netherlands,52.132633,5.291265999999999,1,,OK,
875,APPROXIMATE,India,"Mysuru, Karnataka, India",,"Mysuru, Karnataka, India",12.2958104,76.6393805,1,,OK,
876,APPROXIMATE,Netherlands,"Amsterdam, Netherlands",,Amsterdam,52.3702157,4.895167900000001,1,,OK,
877,APPROXIMATE,Germany,"Bremen, Germany",,"Bremen, Germany",53.07929619999999,8.8016936,1,,OK,
878,APPROXIMATE,India,India,,India,20.593684,78.96288,1,,OK,
879,APPROXIMATE,Singapore,Singapore,,Singapore,1.352083,103.819836,1,,OK,
880,APPROXIMATE,India,"New Panvel East, Panvel, Navi Mumbai, Maharashtra 410206, India",,"New Panvel East, Panvel, Navi Mumbai, Maharashtra, India",19.0015736,73.12020799999999,1,410206,OK,
881,APPROXIMATE,South Africa,South Africa,,South Africa,-30.559482,22.937506,1,,OK,
882,APPROXIMATE,Serbia,Serbia,,Serbia,44.016521,21.005859,1,,OK,
883,APPROXIMATE,Netherlands,"Zaandam, Netherlands",,"Zaandam, Nederland",52.4420399,4.8291993,1,,OK,
884,APPROXIMATE,India,"Mumbai, Maharashtra, India",,"Mumbai, Maharashtra, India",19.0759837,72.8776559,1,,OK,
885,APPROXIMATE,United Kingdom,United Kingdom,,UK,55.378051,-3.435973,1,,OK,
886,APPROXIMATE,Bangladesh,Bangladesh,,Bangladesh,23.684994,90.356331,1,,OK,
887,APPROXIMATE,Germany,Germany,,Germany,51.165691,10.451526,1,,OK,
888,APPROXIMATE,Switzerland,"Liestal, Switzerland",,"Liestal, Schweiz",47.4866143,7.7334272,1,,OK,
889,APPROXIMATE,Netherlands,"Rotterdam, Netherlands",,"Rotterdam, Netherlands",51.9244201,4.4777326,1,,OK,
890,APPROXIMATE,India,"Hyderabad, Telangana, India",,"Hyderabad, Telangana, India",17.385044,78.486671,1,,OK,
891,APPROXIMATE,Sri Lanka,Sri Lanka,,Sri Lanka,7.873053999999999,80.77179699999999,1,,OK,
892,APPROXIMATE,India,"Indore, Madhya Pradesh, India",,"Indore, India",22.7195687,75.8577258,1,,OK,
893,APPROXIMATE,Tunisia,"Sousse, Tunisia",,"Sousse, Tunisie",35.8245029,10.634584,1,,OK,
894,APPROXIMATE,Israel,Israel,,Israel,31.046051,34.851612,1,,OK,
895,APPROXIMATE,Sweden,"Uppsala, Sweden",,"Uppsala, Sweden",59.85856380000001,17.6389267,1,,OK,
896,APPROXIMATE,Spain,"Valencia, Spain",,"Valencia, Spain",39.4699075,-0.3762881,1,,OK,
897,APPROXIMATE,Philippines,"Pandalan Island, Bayan ng Pandami, Philippines",,"Pandalan Island, Pandami, Autonomous Region in Muslim Mindanao, Philippinen",5.4533333,120.7236111,1,,OK,
898,APPROXIMATE,Russia,Russia,,Russia,61.52401,105.318756,1,,OK,
899,APPROXIMATE,Czechia,Czechia,,Czech Republic,49.81749199999999,15.472962,1,,OK,
900,APPROXIMATE,India,India,,India,20.593684,78.96288,1,,OK,
901,APPROXIMATE,India,"Pune, Maharashtra, India",,"Pune, India",18.5204303,73.8567437,1,,OK,
902,APPROXIMATE,Malaysia,Malaysia,,Malaysia,4.210484,101.975766,1,,OK,
903,APPROXIMATE,India,"Aurangabad, Maharashtra, India",,"Aurangabad, Maharashtra, India",19.8761653,75.3433139,1,,OK,
904,ROOFTOP,United States,"9660 Audelia Rd #123, Dallas, TX 75238, USA",,My Office,32.8781667,-96.716653,1,75238,OK,
905,APPROXIMATE,Germany,"Hamburg, Germany",,"Hamburg, Germany",53.5510846,9.9936819,1,,OK,
906,APPROXIMATE,India,"Chennai, Tamil Nadu, India",,"Chennai, India",13.0826802,80.2707184,1,,OK,
907,APPROXIMATE,India,India,,India,20.593684,78.96288,1,,OK,
908,APPROXIMATE,India,"Pune, Maharashtra, India",,"Pune, India",18.5204303,73.8567437,1,,OK,
909,APPROXIMATE,United Kingdom,"Macclesfield, UK",,"Macclesfield, United Kingdom",53.258663,-2.119287,1,,OK,
910,APPROXIMATE,India,"Bengaluru, Karnataka, India",,"Bangalore, Karnataka, India",12.9715987,77.5945627,1,,OK,
911,APPROXIMATE,India,India,,India,20.593684,78.96288,1,,OK,
912,APPROXIMATE,China,"Shanghai, China",,"Shanghai, China",31.2303904,121.4737021,1,,OK,
913,APPROXIMATE,Denmark,Denmark,,Denmark,56.26392,9.501785,1,,OK,
914,APPROXIMATE,Spain,"Vigo, Pontevedra, Spain",,"Vigo, Spain",42.24059889999999,-8.7207268,1,,OK,
915,APPROXIMATE,Russia,"Yaroslavl, Yaroslavl Oblast, Russia",,Yaroslavl. Russian Federation,57.62607440000001,39.8844709,1,,OK,
916,APPROXIMATE,France,"Paris, France",,"Paris, France",48.856614,2.3522219,1,,OK,
917,APPROXIMATE,India,"Bengaluru, Karnataka, India",,"Bangalore, Karnataka, India",12.9715987,77.5945627,1,,OK,
918,APPROXIMATE,India,"Pune, Maharashtra, India",,"Pune, India",18.5204303,73.8567437,1,,OK,
919,APPROXIMATE,United Kingdom,United Kingdom,,United Kingdom,55.378051,-3.435973,1,,OK,
920,APPROXIMATE,Kenya,"Nairobi, Kenya",,"Nairobi, Nairobi County, Kenya",-1.2920659,36.8219462,1,,OK,
921,APPROXIMATE,Sri Lanka,"Colombo, Sri Lanka",,"Colombo, Western Province, Sri Lanka",6.9270786,79.861243,1,,OK,
922,APPROXIMATE,India,"Hyderabad, Telangana, India",,"Hyderabad, India",17.385044,78.486671,1,,OK,
923,APPROXIMATE,Romania,"Bucharest, Romania",,"București, Municipiul București, România",44.4267674,26.1025384,1,,OK,
924,APPROXIMATE,India,"Tiruppur, Tamil Nadu, India",,"Tiruppur, India",11.1085242,77.3410656,1,,OK,
925,APPROXIMATE,Netherlands,"Amsterdam, Netherlands",,"Amsterdam, Netherlands",52.3702157,4.895167900000001,1,,OK,
926,APPROXIMATE,India,India,,India,20.593684,78.96288,1,,OK,
927,APPROXIMATE,India,"Mumbai, Maharashtra, India",,"Mumbai, Maharashtra, India",19.0759837,72.8776559,1,,OK,
928,APPROXIMATE,Australia,"Perth WA, Australia",,"Perth, Australia",-31.9505269,115.8604572,1,,OK,
929,APPROXIMATE,Poland,"Poznań, Poland",,"Poznan, Poland",52.406374,16.9251681,1,61,OK,
930,APPROXIMATE,Bulgaria,"Sofia, Bulgaria",,"Sofia, Bulgaria",42.6977082,23.3218675,1,,OK,
931,APPROXIMATE,Malaysia,"Kuala Lumpur, Federal Territory of Kuala Lumpur, Malaysia",,"Kuala Lumpur, Malaysia",3.139003,101.686855,1,,OK,
932,APPROXIMATE,Indonesia,Indonesia,,Indonesia,-0.789275,113.921327,1,,OK,
933,APPROXIMATE,India,"Sangli, Maharashtra, India",,"Sangli, Maharashtra, India",16.8523973,74.5814773,1,,OK,
934,APPROXIMATE,South Africa,"Cape Town, South Africa",,Cape Town,-33.9248685,18.4240553,1,,OK,
935,APPROXIMATE,India,"Ahmedabad, Gujarat, India",,"Ahmedabad, Gujarat, India",23.022505,72.5713621,1,,OK,
936,APPROXIMATE,Pakistan,"Lahore, Punjab, Pakistan",,"Lahore, Pakistan",31.5203696,74.35874729999999,1,,OK,
937,APPROXIMATE,Italy,"Padua, Province of Padua, Italy",,"Padua, Italy",45.4064349,11.8767611,1,,OK,
938,APPROXIMATE,India,"Bengaluru, Karnataka, India",,"Bangalore, Karnataka, India",12.9715987,77.5945627,1,,OK,
939,APPROXIMATE,United States,"New York, NY, USA",,"New York, État de New York, États-Unis",40.7127753,-74.0059728,1,,OK,
940,APPROXIMATE,Spain,"Barcelona, Spain",,"Barcelona, España",41.3850639,2.1734035,1,,OK,
941,APPROXIMATE,India,"Allahabad, Uttar Pradesh, India",,"Allahabad, Uttar Pradesh, India",25.4358011,81.846311,1,,OK,
942,APPROXIMATE,United Kingdom,"Manchester, UK",,"Manchester, UK",53.4807593,-2.2426305,1,,OK,
943,APPROXIMATE,Israel,Israel,,Israel,31.046051,34.851612,1,,OK,
944,APPROXIMATE,Germany,"Tübingen, Germany",,"Tübingen, Deutschland",48.5216364,9.0576448,1,,OK,
945,APPROXIMATE,United Kingdom,"Newcastle upon Tyne, UK",,"Newcastle upon Tyne, United Kingdom",54.978252,-1.61778,1,,OK,
946,APPROXIMATE,United Kingdom,"Cardiff, UK",,"Cardiff, United Kingdom",51.48158100000001,-3.17909,1,,OK,
947,APPROXIMATE,Sweden,"Stockholm, Sweden",,"Stockholm, Sweden",59.32932349999999,18.0685808,1,,OK,
948,APPROXIMATE,India,"Mumbai, Maharashtra, India",,"Mumbai, India",19.0759837,72.8776559,1,,OK,
949,APPROXIMATE,India,"Dehradun, Uttarakhand, India",,"Dehradun, Uttarakhand, India",30.3164945,78.03219179999999,1,,OK,
950,APPROXIMATE,Pakistan,"Karachi, Karachi City, Sindh, Pakistan",,"Karachi, Pakistan",24.8607343,67.0011364,1,,OK,
951,APPROXIMATE,Poland,"Poznań, Poland",,"Poznań, Poland",52.406374,16.9251681,1,61,OK,
952,APPROXIMATE,Norway,"Bergen, Norway",,"Bergen, Norway",60.39126279999999,5.3220544,1,,OK,
953,APPROXIMATE,Belgium,Belgium,,België,50.503887,4.469936,1,,OK,
954,APPROXIMATE,India,"Assam, India",,"Assam, India",26.2006043,92.9375739,1,,OK,
955,APPROXIMATE,Israel,Israel,,Israel,31.046051,34.851612,1,,OK,
956,APPROXIMATE,Bangladesh,"Dhaka, Bangladesh",,"Dhaka, Bangladesh",23.810332,90.4125181,1,,OK,
957,APPROXIMATE,India,"Hubballi, Karnataka, India",,"Hubli, India",15.3647083,75.1239547,1,,OK,
958,APPROXIMATE,India,"Pune, Maharashtra, India",,"Pune, Maharashtra, India",18.5204303,73.8567437,1,,OK,
959,APPROXIMATE,Antarctica,Antarctica,,Antarctica,-82.862752,135.0,1,,OK,
960,APPROXIMATE,Bangladesh,"Dhaka, Bangladesh",,"Dhaka, Dhaka Division, Bangladesh",23.810332,90.4125181,1,,OK,
961,APPROXIMATE,Sri Lanka,"Gampaha, Sri Lanka",,"Gampaha, Sri Lanka",7.0873101,80.01436559999999,1,,OK,
962,APPROXIMATE,United Kingdom,United Kingdom,,United Kingdom,55.378051,-3.435973,1,,OK,
963,APPROXIMATE,Bangladesh,Bangladesh,,Bangladesh,23.684994,90.356331,1,,OK,
964,APPROXIMATE,India,"Pune, Maharashtra, India",,"Pune, Maharashtra, India",18.5204303,73.8567437,1,,OK,
965,APPROXIMATE,Italy,"Ferrara, Province of Ferrara, Italy",,"Ferrara, Italy",44.8381237,11.619787,1,,OK,
966,APPROXIMATE,United Arab Emirates,Abu Dhabi - United Arab Emirates,,Abu Dhabi - United Arab Emirates,24.453884,54.3773438,1,,OK,
967,APPROXIMATE,Iran,Iran,,Iran,32.427908,53.688046,1,,OK,
968,APPROXIMATE,Germany,"Stuttgart, Germany",,"Stuttgart, Germany",48.7758459,9.1829321,1,,OK,
969,APPROXIMATE,India,"Bengaluru, Karnataka, India",,"Bangalore, Karnataka, India",12.9715987,77.5945627,1,,OK,
970,APPROXIMATE,Spain,Spain,,Spain,40.46366700000001,-3.74922,1,,OK,
971,APPROXIMATE,Malaysia,Malaysia,,Malaysia,4.210484,101.975766,1,,OK,
972,APPROXIMATE,,Ireland,,Ireland,53.1423672,-7.692053599999999,1,,OK,
973,APPROXIMATE,Sweden,"Stockholm, Sweden",,"Sztokholm, Szwecja",59.32932349999999,18.0685808,1,,OK,
974,APPROXIMATE,Pakistan,"Islamabad, Islamabad Capital Territory, Pakistan",,"Islamabad, Islamabad Capital Territory, Pakistan",33.6844202,73.04788479999999,1,,OK,
975,APPROXIMATE,Cambodia,"Phnom Penh, Cambodia",,"Phnom Penh, Cambodia",11.5563738,104.9282099,1,,OK,
976,APPROXIMATE,Japan,"Tokyo, Japan",,日本Tōkyō-to,35.6894875,139.6917064,1,,OK,
977,APPROXIMATE,United Kingdom,"London, UK",,"London, United Kingdom",51.5073509,-0.1277583,1,,OK,
978,APPROXIMATE,India,"Bengaluru, Karnataka, India",,"Bangalore, India",12.9715987,77.5945627,1,,OK,
979,APPROXIMATE,Spain,"Madrid, Spain",,"Madrid, Spain",40.4167754,-3.7037902,1,,OK,
980,APPROXIMATE,Spain,"Irun, Gipuzkoa, Spain",,"Irún, Guipúzcoa, España",43.3380969,-1.7888483,1,,OK,
981,APPROXIMATE,India,"Bengaluru, Karnataka, India",,"Bengaluru, India",12.9715987,77.5945627,1,,OK,
982,APPROXIMATE,Germany,"Cologne, Germany",,"Cologne, Deutschland",50.937531,6.9602786,1,,OK,
983,APPROXIMATE,United States,"Cambridge, MA, USA",,"Cambridge, MA, United States",42.3736158,-71.10973349999999,1,,OK,
984,APPROXIMATE,Slovakia,Slovakia,,Slovakia,48.669026,19.699024,1,,OK,
985,APPROXIMATE,Belgium,"Diest, Belgium",,"Diest, Belgium",50.98965,5.050160000000001,1,,OK,
986,APPROXIMATE,Germany,"Berlin, Germany",,"Berlin, Germany",52.52000659999999,13.404954,1,,OK,
987,APPROXIMATE,India,"Noida, Uttar Pradesh, India",,"Noida, Uttar Pradesh, India",28.5355161,77.3910265,1,,OK,
988,APPROXIMATE,China,"Beijing, China",,"Beijing, China",39.90419989999999,116.4073963,1,,OK,
989,APPROXIMATE,United Kingdom,"Northamptonshire, UK",,"Northamptonshire, United Kingdom",52.27299439999999,-0.8755514999999999,1,,OK,
990,APPROXIMATE,India,"Noida, Uttar Pradesh, India",,"Noida, Uttar Pradesh, India",28.5355161,77.3910265,1,,OK,
991,APPROXIMATE,United States,"Middlebury, VT 05753, USA",,"Middlebury, VT, United States",44.0153371,-73.16734,1,05753,OK,
992,APPROXIMATE,India,"Mumbai, Maharashtra, India",,"Mumbai, India",19.0759837,72.8776559,1,,OK,
993,APPROXIMATE,Thailand,"Bangkok, Thailand",,Bangkok Thailand,13.7563309,100.5017651,1,,OK,
994,APPROXIMATE,India,"Hyderabad, Telangana, India",,"Hyderabad, Telangana, India",17.385044,78.486671,1,,OK,
995,APPROXIMATE,India,India,,India,20.593684,78.96288,1,,OK,
996,APPROXIMATE,Russia,Russia,,Russia,61.52401,105.318756,1,,OK,
997,APPROXIMATE,India,"Hyderabad, Telangana, India",,"Hyderabad, Telangana, India",17.385044,78.486671,1,,OK,
998,APPROXIMATE,United Arab Emirates,Dubai - United Arab Emirates,,Dubai - United Arab Emirates,25.2048493,55.2707828,1,,OK,
999,APPROXIMATE,India,"Ahmedabad, Gujarat, India",,"Ahmedabad, Gujarat, India",23.022505,72.5713621,1,,OK,
